long;lat;id;nombre;anio_de_in;tipo;cantidad;ubicacion;clasificac;calle;altura;calle2;barrio;comuna;codigo_postal;codigo_postal_argentino
-58,45693756;-34,62665578;1;LINEA A CARABOBO;2011;4U;1;VIA PUBLICA;SUBTE;RIVADAVIA AV.;0;CARABOBO AV.;Flores;Comuna 7;;
-58,44875669;-34,62369886;2;LINEA A PUAN;2011;4U;1;VIA PUBLICA;SUBTE;RIVADAVIA AV.;0;PUAN;Caballito;Comuna 6;;
-58,44137991;-34,62061572;3;LINEA A PRIMERA JUNTA;2011;4U;1;VIA PUBLICA;SUBTE;RIVADAVIA AV.;0;ROJAS;Caballito;Comuna 6;;
-58,43634685;-34,61814405;4;LINEA A ACOYTE;2011;4U;1;VIA PUBLICA;SUBTE;RIVADAVIA AV.;0;ACOYTE AV.;Caballito;Comuna 6;;
-58,42989608;-34,61527931;5;LINEA A RIO DE JANEIRO;2011;4U;1;VIA PUBLICA;SUBTE;RIVADAVIA AV.;0;RIO DE JANEIRO;Caballito;Comuna 6;;
-58,42085882;-34,61154618;6;LINEA A CASTRO BARROS;2011;4U;1;VIA PUBLICA;SUBTE;RIVADAVIA AV.;3900;;Almagro;Comuna 5;1204;C1204AAQ
-58,41454852;-34,610831;7;LINEA A LORIA;2011;4U;1;VIA PUBLICA;SUBTE;RIVADAVIA AV.;3400;;Balvanera;Comuna 3;1203;C1203AAS
-58,4063936;-34,61003498;8;LINEA A PLAZA MISERERE;2011;4U;1;VIA PUBLICA;SUBTE;RIVADAVIA AV.;0;JUJUY AV.;Balvanera;Comuna 3;;
-58,40035115;-34,60990016;9;LINEA A ALBERTI;2011;4U;1;VIA PUBLICA;SUBTE;RIVADAVIA AV.;2400;;Balvanera;Comuna 3;1034;C1034ACP
-58,39747324;-34,60968126;10;LINEA A PASCO;2011;4U;1;VIA PUBLICA;SUBTE;RIVADAVIA AV.;2200;;Balvanera;Comuna 3;1034;C1034ACN
-58,39208883;-34,60930545;11;LINEA A CONGRESO;2011;4U;1;VIA PUBLICA;SUBTE;RIVADAVIA AV.;0;ENTRE RIOS AV.;San Nicolas;Comuna 1;;
-58,38613054;-34,6094851;12;LINEA A SAENZ PEÑA;2011;4U;1;VIA PUBLICA;SUBTE;DE MAYO AV.;1400;;Monserrat;Comuna 1;1085;C1085ABQ
-58,38330751;-34,6092915;13;LINEA A LIMA;2011;4U;1;VIA PUBLICA;SUBTE;DE MAYO AV.;1200;;Monserrat;Comuna 1;1085;C1085ABO
-58,3762417;-34,60880269;14;LINEA A PIEDRAS;2011;4U;1;VIA PUBLICA;SUBTE;DE MAYO AV.;700;;Monserrat;Comuna 1;1084;C1084AAO
-58,37419495;-34,60866555;15;LINEA A PERU;2011;4U;1;VIA PUBLICA;SUBTE;DE MAYO AV.;550;;Monserrat;Comuna 1;1084;C1084AAN
-58,47406999;-34,58136885;16;LINEA B DE LOS INCAS-PARQUE CHAS;2011;4U;1;VIA PUBLICA;SUBTE;TRIUNVIRATO AV.;0;DE LOS INCAS AV.;Parque Chas;Comuna 15;;
-58,46639208;-34,58396918;17;LINEA B TRONADOR-VILLA ORTUZAR;2011;4U;1;VIA PUBLICA;SUBTE;TRIUNVIRATO AV.;0;TRONADOR;Villa Ortuzar;Comuna 15;;
-58,45534229;-34,58708574;18;LINEA B F. LACROZE;2011;4U;1;VIA PUBLICA;SUBTE;CORRIENTES AV.;0;LACROZE, FEDERICO AV.;Chacarita;Comuna 15;;
-58,4474154;-34,59201969;19;LINEA B DORREGO;2011;4U;1;VIA PUBLICA;SUBTE;CORRIENTES AV.;6100;;Villa Crespo;Comuna 15;1414;C1414AKN
-58,43942603;-34,59942884;20;LINEA B MALABIA;2011;4U;1;VIA PUBLICA;SUBTE;CORRIENTES AV.;5200;;Villa Crespo;Comuna 15;1414;C1414AJR
-58,43005883;-34,60237673;21;LINEA B ANGEL GALLARDO;2011;4U;1;VIA PUBLICA;SUBTE;CORRIENTES AV.;4600;;Almagro;Comuna 5;1195;C1195AAR
-58,41023467;-34,60414186;22;LINEA B CARLOS GARDEL;2011;4U;1;VIA PUBLICA;SUBTE;CORRIENTES AV.;3200;;Balvanera;Comuna 3;1193;C1193AAQ
-58,40535828;-34,6046809;23;LINEA B PUEYRREDON;2011;4U;1;VIA PUBLICA;SUBTE;CORRIENTES AV.;2800;;Balvanera;Comuna 3;1046;C1046AAS
-58,39809688;-34,6046834;24;LINEA B PASTEUR;2011;4U;1;VIA PUBLICA;SUBTE;CORRIENTES AV.;2200;;Balvanera;Comuna 3;1045;C1045AAQ
-58,39069254;-34,60443257;25;LINEA B CALLAO;2011;4U;1;VIA PUBLICA;SUBTE;CORRIENTES AV.;1700;;San Nicolas;Comuna 1;1042;C1042AAP
-58,38640184;-34,60409447;26;LINEA B URUGUAY;2011;4U;1;VIA PUBLICA;SUBTE;CORRIENTES AV.;1400;;San Nicolas;Comuna 1;1043;C1043ABN
-58,37937345;-34,60367653;27;LINEA B CARLOS PELLEGRINI;2011;4U;1;VIA PUBLICA;SUBTE;CORRIENTES AV.;900;;San Nicolas;Comuna 1;1043;C1043AAV
-58,37372893;-34,60333397;28;LINEA B FLORIDA;2011;4U;1;VIA PUBLICA;SUBTE;CORRIENTES AV.;500;;San Nicolas;Comuna 1;1043;C1043AAR
-58,36893042;-34,60300997;29;LINEA B LEANDRO N. ALEM;2011;4U;1;VIA PUBLICA;SUBTE;CORRIENTES AV.;100;;San Nicolas;Comuna 1;1043;C1043AAN
-58,37735983;-34,59559788;30;LINEA C GRAL SAN MARTIN;2011;4U;1;VIA PUBLICA;SUBTE;SANTA FE AV.;700;;Retiro;Comuna 1;1059;C1059ABN
-58,37906394;-34,60899998;31;LINEA C AV DE MAYO;2011;4U;1;VIA PUBLICA;SUBTE;DE MAYO AV.;900;;Monserrat;Comuna 1;1084;C1084AAQ
-58,3784991;-34,62220642;32;LINEA C SAN JUAN;2011;4U;1;VIA PUBLICA;SUBTE;SAN JUAN AV.;900;;Constitucion;Comuna 1;1147;C1147AAT
-58,37948348;-34,62786049;33;LINEA C CONSTITUCION;2011;4U;1;VIA PUBLICA;SUBTE;BRASIL;1100;;Constitucion;Comuna 1;1154;C1154AAR
-58,46196128;-34,55626827;34;LINEA D CONGRESO DE TUCUMAN;2011;4U;1;VIA PUBLICA;SUBTE;CABILDO AV.;2800;;Belgrano;Comuna 13;1428;C1428AAW
-58,45591417;-34,56312678;35;LINEA D JURAMENTO;2011;4U;1;VIA PUBLICA;SUBTE;CABILDO AV.;2000;;Belgrano;Comuna 13;1428;C1428AAO
-58,45231246;-34,56622351;36;LINEA D JOSE HERNANDEZ;2011;4U;1;VIA PUBLICA;SUBTE;CABILDO AV.;1600;;Colegiales;Comuna 13;1426;C1426ABP
-58,44378461;-34,57065155;37;LINEA D OLLEROS;2011;4U;1;VIA PUBLICA;SUBTE;CABILDO AV.;700;;Colegiales;Comuna 13;1426;C1426AAT
-58,43333137;-34,57608655;38;LINEA D MINISTRO CARRANZA;2011;4U;1;VIA PUBLICA;SUBTE;SANTA FE AV.;5200;;Palermo;Comuna 14;1425;C1425BIN
-58,42619862;-34,57838333;39;LINEA D PALERMO;2011;4U;1;VIA PUBLICA;SUBTE;SANTA FE AV.;4600;;Palermo;Comuna 14;1425;C1425BHU
-58,41999238;-34,58252853;40;LINEA D PLAZA ITALIA;2011;4U;1;VIA PUBLICA;SUBTE;SANTA FE AV.;4000;;Palermo;Comuna 14;1425;C1425BHO
-58,41824864;-34,58372759;41;LINEA D SCALABRINI ORTIZ;2011;4U;1;VIA PUBLICA;SUBTE;SANTA FE AV.;3900;;Palermo;Comuna 14;1425;C1425BHN
-58,40229058;-34,59457282;42;LINEA D PUEYRREDON;2011;4U;1;VIA PUBLICA;SUBTE;SANTA FE AV.;2500;;Recoleta;Comuna 2;1123;C1123AAT
-58,39707301;-34,59983627;43;LINEA D FACULTAD DE MEDICINA;2011;4U;1;VIA PUBLICA;SUBTE;CORDOBA AV.;2100;;Balvanera;Comuna 3;1120;C1120AAP
-58,38515757;-34,6016877;44;LINEA D TRIBUNALES;2011;4U;1;VIA PUBLICA;SUBTE;TUCUMAN;1300;;San Nicolas;Comuna 1;1049;C1049AAZ
-58,3792852;-34,60509858;45;LINEA D 9 DE JULIO;2011;4U;1;VIA PUBLICA;SUBTE;SAENZ PEÑA, ROQUE, PRES. DIAGONAL NORTE AV.;900;;San Nicolas;Comuna 1;;
-58,37375455;-34,60797335;46;LINEA D CATEDRAL;2011;4U;1;VIA PUBLICA;SUBTE;SAENZ PEÑA, ROQUE, PRES. DIAGONAL NORTE AV.;502;;Monserrat;Comuna 1;;
-58,46058707;-34,64312168;47;LINEA E PLAZA DE LOS VIRREYES;2011;4U;1;VIA PUBLICA;SUBTE;SAN PEDRITO;0;PERON, EVA AV.;Flores;Comuna 7;;
-58,45853437;-34,63938826;48;LINEA E VARELA;2011;4U;1;VIA PUBLICA;SUBTE;VARELA AV.;900;;Flores;Comuna 7;1406;C1406EKR
-58,45028248;-34,63693561;49;LINEA E MEDALLA MILAGROSA;2011;4U;1;VIA PUBLICA;SUBTE;PERON, EVA AV.;2000;;Parque Chacabuco;Comuna 7;1406;C1406HMU
-58,44079096;-34,63014367;50;LINEA E EMILIO MITRE;2011;4U;1;VIA PUBLICA;SUBTE;PERON, EVA AV.;1100;;Parque Chacabuco;Comuna 7;1424;C1424CJN
-58,43367671;-34,62810925;51;LINEA E JOSE M. MORENO;2011;4U;1;VIA PUBLICA;SUBTE;DIRECTORIO AV.;500;;Parque Chacabuco;Comuna 7;1424;C1424CIR
-58,4254246;-34,62691461;52;LINEA E AV. LA PLATA;2011;4U;1;VIA PUBLICA;SUBTE;SAN JUAN AV.;4300;;Boedo;Comuna 5;1233;C1233ABZ
-58,41458333;-34,6253646;53;LINEA E BOEDO;2011;4U;1;VIA PUBLICA;SUBTE;SAN JUAN AV.;3500;;Boedo;Comuna 5;1233;C1233ABR
-58,4087157;-34,62467683;54;LINEA E GENERAL URQUIZA;2011;4U;1;VIA PUBLICA;SUBTE;SAN JUAN AV.;3100;;San Cristobal;Comuna 3;1233;C1233ABN
-58,40199272;-34,62386235;55;LINEA E JUJUY;2011;4U;1;VIA PUBLICA;SUBTE;SAN JUAN AV.;2700;;San Cristobal;Comuna 3;1232;C1232AAV
-58,39626902;-34,62316062;56;LINEA E PICHINCHA;2011;4U;1;VIA PUBLICA;SUBTE;SAN JUAN AV.;2200;;San Cristobal;Comuna 3;1232;C1232AAQ
-58,38426914;-34,62241698;57;LINEA E SAN JOSE;2011;4U;1;VIA PUBLICA;SUBTE;SAN JUAN AV.;1300;;Constitucion;Comuna 1;1148;C1148AAN
-58,37603037;-34,6128527;58;LINEA E BELGRANO;2011;4U;1;VIA PUBLICA;SUBTE;BELGRANO AV.;700;;Monserrat;Comuna 1;1092;C1092AAT
-58,37346254;-34,60924796;59;LINEA E BOLIVAR;2011;4U;1;VIA PUBLICA;SUBTE;ROCA, JULIO A., PRESIDENTE DIAGONAL SUR AV.;502;;Monserrat;Comuna 1;1067;C1067ABN
-58,38662557;-34,59991723;60;CGPC 1;2011;4U;1;VIA PUBLICA;EDIFICIOS PUBLICOS;URUGUAY AV.;751;;San Nicolas;Comuna 1;1015;C1015ABO
-58,43122403;-34,60884075;61;CGPC 6;2011;4U;1;VIA PUBLICA;EDIFICIOS PUBLICOS;DIAZ VELEZ AV.;4558;;Caballito;Comuna 6;1405;C1405DCN
-58,46693311;-34,63014801;62;CGPC 7;2011;4U;1;VIA PUBLICA;EDIFICIOS PUBLICOS;RIVADAVIA AV.;7202;;Flores;Comuna 7;1406;C1406GMP
-58,45526079;-34,68480341;63;CGPC 8;2011;4U;1;VIA PUBLICA;EDIFICIOS PUBLICOS;ROCA, CNEL. AV.;5252;;Villa Riachuelo;Comuna 8;1439;C1439DVN
-58,50498314;-34,65968006;64;CGPC 9;2011;4U;1;VIA PUBLICA;EDIFICIOS PUBLICOS;GORDILLO, TIMOTEO;2212;;Mataderos;Comuna 9;1440;C1440EET
-58,48349832;-34,63186953;65;CGPC 10;2011;4U;1;VIA PUBLICA;EDIFICIOS PUBLICOS;BACACAY;3968;;Floresta;Comuna 10;1407;C1407EDN
-58,51602797;-34,60832803;66;CGPC 11;2011;4U;1;VIA PUBLICA;EDIFICIOS PUBLICOS;BEIRO, FRANCISCO AV.;4629;;Villa Devoto;Comuna 11;1419;C1419HZI
-58,46402943;-34,55375693;67;CGPC 13;2011;4U;1;VIA PUBLICA;EDIFICIOS PUBLICOS;CABILDO AV.;3067;;Nuñez;Comuna 13;1429;C1429AAB
-58,40943386;-34,5872262;68;CGPC 14;2011;4U;1;VIA PUBLICA;EDIFICIOS PUBLICOS;BERUTI;3325;;Palermo;Comuna 14;1425;C1425BBQ
-58,36966173;-34,61126213;69;PLAZA ADUANA;2011;4U;1;VIA PUBLICA;ESPACIOS VERDES;MORENO;0;PASEO COLON AV.;Monserrat;Comuna 1;;
-58,42064662;-34,5801036;70;PLAZA ITALIA;2011;4U;1;VIA PUBLICA;ESPACIOS VERDES;SANTA FE AV.;0;THAMES;Palermo;Comuna 14;;
-58,38536887;-34,60106338;71;TRIBUNALES;2011;4U;1;VIA PUBLICA;ESPACIOS VERDES;TALCAHUANO;0;TUCUMAN;San Nicolas;Comuna 1;;
-58,37456236;-34,59223694;72;RETIRO;2011;4U;1;VIA PUBLICA;ESPACIOS VERDES;DEL LIBERTADOR AV.;0;RAMOS MEJIA, JOSE MARIA, DR. AV.;Retiro;Comuna 1;;
-58,40952182;-34,6177102;73;HOSPITAL RAMOS MEJIA;2011;4U;1;VIA PUBLICA;HOSPITALES;URQUIZA, GRAL.;609;;Balvanera;Comuna 3;1221;C1221ADC
-58,39585185;-34,63134137;74;HOSPITAL GARRAHAM;2011;4U;1;VIA PUBLICA;HOSPITALES;PICHINCHA AV.;1890;;Parque Patricios;Comuna 4;1249;C1249ABN
-58,40142607;-34,59210401;75;HOSPITAL ALEMAN;2011;4U;1;VIA PUBLICA;HOSPITALES;PUEYRREDON AV.;1640;;Recoleta;Comuna 2;1118;C1118AAT
-58,4709791;-34,58741651;76;HOSPITAL TORNU;2011;4U;1;VIA PUBLICA;HOSPITALES;COMBATIENTES DE MALVINAS AV.;3002;;Parque Chas;Comuna 15;1431;C1431FTA
-58,5017791;-34,61837273;77;HOSPITAL DE REHABILITACION MANUEL ROCA;2011;4U;1;VIA PUBLICA;HOSPITALES;SEGUROLA AV.;1949;;Monte Castro;Comuna 10;1407;C1407AOM
-58,44092747;-34,55395311;78;INSTITUTO DE REHABILITACION PSICOFISICO;2011;4U;1;VIA PUBLICA;HOSPITALES;ECHEVERRIA;955;;Belgrano;Comuna 13;1428;C1428DQG
-58,45560249;-34,56130319;79;MUSEO LARRETA;2011;4U;1;VIA PUBLICA;EDIFICIOS CULTURALES;JURAMENTO AV.;2291;;Belgrano;Comuna 13;1428;C1428DNK
-58,40049533;-34,58257574;80;MUSEO DE ARTE DECORATIVO;2011;4U;1;VIA PUBLICA;EDIFICIOS CULTURALES;DEL LIBERTADOR AV.;1902;;Palermo;Comuna 14;1425;C1425AAS
-58,38578911;-34,5863027;81;MUSEO DE ARQUITECTURA;2011;4U;1;VIA PUBLICA;EDIFICIOS CULTURALES;DEL LIBERTADOR AV.;999;;Recoleta;Comuna 2;1001;C1001ABJ
-58,443342;-34,56819669;82;TEA CONECTION;2011;4U;1;VIA PUBLICA;GASTRONOMICOS;LACROZE, FEDERICO AV.;2233;;Palermo;Comuna 14;1426;C1426CPH
-58,45304012;-34,56130884;83;TEA CONECTION;2011;4U;1;VIA PUBLICA;GASTRONOMICOS;ARCOS;0;ECHEVERRIA;Belgrano;Comuna 13;;
-58,38966072;-34,58588743;84;PALAIS DE GLACE;2011;4U;1;VIA PUBLICA;EDIFICIOS CULTURALES;POSADAS;1725;;Recoleta;Comuna 2;1112;C1112ADE
-58,3757179;-34,62283243;85;DIRECCION DE OBRAS;2011;4U;1;VIA PUBLICA;EDIFICIOS PUBLICOS;CHACABUCO;1261;;San Telmo;Comuna 1;1140;C1140AAA
-58,41230648;-34,60761382;86;DIRECCION GENERAL DE ESTADISTICAS Y CENSOS;2011;4U;1;VIA PUBLICA;EDIFICIOS PUBLICOS;PERON, JUAN DOMINGO, TTE. GENERAL;3253;;Balvanera;Comuna 3;1198;C1198AAI
-58,37019503;-34,60891628;87;MINISTERIO DE PLANIFICACION;2011;4U;1;VIA PUBLICA;EDIFICIOS PUBLICOS;YRIGOYEN, HIPOLITO AV.;250;;Monserrat;Comuna 1;1086;C1086AAB
-58,40819784;-34,60779973;88;AGENCIA GUBERNAMENTAL DE CONTROL;2011;4U;1;VIA PUBLICA;EDIFICIOS PUBLICOS;PERON, JUAN DOMINGO, TTE. GENERAL;2933;;Balvanera;Comuna 3;1198;C1198AAC
-58,38904608;-34,60899418;89;VIA PUBLICA;2011;4U;1;VIA PUBLICA;ESPACIOS VERDES;RIVADAVIA AV.;0;CEVALLOS, VIRREY;San Nicolas;Comuna 1;;
-58,40722145;-34,58091218;90;HOSPITAL DR. J. A. FERNANDEZ;2011;4U;1;VIA PUBLICA;HOSPITALES;CERVIÑO AV.;0;RUGGIERI, SILVIO L.;Palermo;Comuna 14;;
-58,42359581;-34,6597866;91;ESCUELA FERRE Nº5;2011;4U;1;VIA PUBLICA;ESCUELAS;FERRE;1957;;Nueva Pompeya;Comuna 4;1437;C1437FUK
-58,37579183;-34,60346039;92;AUDITORIA GRAL DE LA CIUDAD;2011;4U;1;VIA PUBLICA;EDIFICIOS PUBLICOS;CORRIENTES AV.;640;;San Nicolas;Comuna 1;1043;C1043AAT
-58,36964873;-34,61156709;93;ANSES;2011;4U;1;VIA PUBLICA;EDIFICIOS PUBLICOS;PASEO COLON AV.;329;;Monserrat;Comuna 1;1063;C1063ACD
-58,44263407;-34,62789781;94;SAINT EXUPERY;2011;4U;1;VIA PUBLICA;ESCUELAS;BONIFACIO, JOSE;1075;;Caballito;Comuna 6;1424;C1424CHU
-58,37661361;-34,6067867;95;MAIPU 116;2011;4U;1;VIA PUBLICA;EDIFICIOS PUBLICOS;MAIPU;116;;San Nicolas;Comuna 1;1084;C1084ABD
-58,3728499;-34,59774076;96;RECONQUISTA 865;2011;4U;1;VIA PUBLICA;EDIFICIOS PUBLICOS;RECONQUISTA;865;;Retiro;Comuna 1;1003;C1003ABQ
-58,3726537;-34,59936785;97;RECONQUISTA 723;2011;4U;1;VIA PUBLICA;EDIFICIOS PUBLICOS;RECONQUISTA;723;;San Nicolas;Comuna 1;1003;C1003ABO
-58,37222619;-34,60624969;98;RECONQUISTA 135;2011;4U;1;VIA PUBLICA;EDIFICIOS PUBLICOS;RECONQUISTA;135;;San Nicolas;Comuna 1;1003;C1003ABC
-58,39380748;-34,63742513;99;HOSPITAL MUÑIZ;2011;4U;1;VIA PUBLICA;HOSPITALES;USPALLATA;2272;;Parque Patricios;Comuna 4;1282;C1282AEN
-58,38011512;-34,5910563;100;MUSEO FERNANDEZ BLANCO;2011;4U;1;VIA PUBLICA;EDIFICIOS CULTURALES;SUIPACHA;1422;;Retiro;Comuna 1;1011;C1011ACF
-58,4146796;-34,5807159;101;MUSEO EVITA;2011;4U;1;VIA PUBLICA;EDIFICIOS CULTURALES;LAFINUR;2988;;Palermo;Comuna 14;1425;C1425FAB
-58,38059925;-34,654729;102;CENTRO METROPOLITANO DE DISEÑO;2011;4U;1;VIA PUBLICA;EDIFICIOS CULTURALES;VILLARINO;2498;;Barracas;Comuna 4;1273;C1273AEB
-58,37917695;-34,58992883;103;MUSEO NACIONAL FERROVIARIO;2011;4U;1;VIA PUBLICA;EDIFICIOS CULTURALES;DEL LIBERTADOR AV.;405;;Retiro;Comuna 1;1001;C1001ABE
-58,41145882;-34,57088339;104;PLANETARIO;2011;4U;1;VIA PUBLICA;EDIFICIOS CULTURALES;SARMIENTO AV.;0;ROLDAN, BELISARIO AV.;Palermo;Comuna 14;;
-58,40489822;-34,57997984;105;MUSEO JOSE HERNANDEZ;2011;4U;1;VIA PUBLICA;EDIFICIOS CULTURALES;DEL LIBERTADOR AV.;2373;;Palermo;Comuna 14;1425;C1425AAJ
-58,42118287;-34,57053028;106;MUSEO DE ARTES PLASTICAS EDUARDO SIVORI;2011;4U;1;VIA PUBLICA;EDIFICIOS CULTURALES;ISABEL, INFANTA AV.;555;;Palermo;Comuna 14;;
-58,38042592;-34,61147594;107;ASI;2012;4U;1;VIA PUBLICA;EDIFICIOS PUBLICOS;IRIGOYEN, BERNARDO DE;272;;Monserrat;Comuna 1;1072;C1072AAF
-58,45526079;-34,68480341;108;DIRECCION GENERAL DE LICENCIAS;2012;4U;1;INTERIOR;EDIFICIOS PUBLICOS;ROCA, CNEL. AV.;5252;;Villa Riachuelo;Comuna 8;1439;C1439DVN
-58,41903612;-34,5828306;109;JARDIN BOTANICO;2012;4U;2;INTERIOR;ESPACIOS VERDES;SANTA FE AV.;3951;;Palermo;Comuna 14;1425;C1425BHB
-58,39171378;-34,58659776;110;CC RECOLETA;2012;4U;2;INTERIOR;EDIFICIOS CULTURALES;JUNIN;1930;;Recoleta;Comuna 2;1113;C1113AAX
-58,4036381;-34,57732984;111;MALBA;2012;4U;2;VIA PUBLICA;EDIFICIOS CULTURALES;FIGUEROA ALCORTA, PRES. AV.;3415;;Palermo;Comuna 14;1425;C1425CLA
-58,43984605;-34,58199046;112;IDEAS DEL SUR;2012;4U;2;VIA PUBLICA;OTROS;RAVIGNANI, EMILIO, DR.;1664;;Palermo;Comuna 14;1414;C1414CPN
-58,35596556;-34,62881209;113;USINA DE LAS ARTES;2012;4U;1;INTERIOR;EDIFICIOS CULTURALES;DON PEDRO DE MENDOZA AV.;0;CAFFARENA, AGUSTIN R.;La Boca;Comuna 4;;
-58,37364358;-34,6080661;114;JEFATURA DE GOBIERNO;2012;4U;1;INTERIOR;EDIFICIOS PUBLICOS;BOLIVAR;1;;Monserrat;Comuna 1;1066;C1066AAA
-58,37453293;-34,60847008;115;CULTURA;2012;4U;1;INTERIOR;EDIFICIOS PUBLICOS;DE MAYO AV.;575;;Monserrat;Comuna 1;1084;C1084AAA
-58,38390066;-34,59926258;116;PLAZA LAVALLE;2013;4U;1;VIA PUBLICA;AV. CORDOBA- ESPACIOS VERDES;CORDOBA AV.;1200;;San Nicolas;Comuna 1;1055;C1055AAO
-58,38989178;-34,59956436;117;RESTAURANT;2013;4U;1;VIA PUBLICA;AV. CORDOBA;CORDOBA AV.;1616;;San Nicolas;Comuna 1;1055;C1055AAT
-58,39076631;-34,59962192;118;RESTAURANT;2013;4U;1;VIA PUBLICA;AV. CORDOBA;CORDOBA AV.;1662;;San Nicolas;Comuna 1;1055;C1055AAT
-58,37157312;-34,59853321;119;TECHINT;2013;4U;1;VIA PUBLICA;AV. CORDOBA;CORDOBA AV.;302;;San Nicolas;Comuna 1;1054;C1054AAP
-58,42708609;-34,5959931;120;AYRES;2013;4U;1;VIA PUBLICA;AV. CORDOBA;CORDOBA AV.;4307;;Palermo;Comuna 14;1414;C1414BAB
-58,42838265;-34,59547011;121;BANCO DE LA NACION ARGENTINA;2013;4U;1;VIA PUBLICA;AV. CORDOBA;CORDOBA AV.;4416;;Villa Crespo;Comuna 15;1414;C1414BAP
-58,42857904;-34,59508121;122;PORTSAID;2013;4U;1;VIA PUBLICA;AV. CORDOBA;CORDOBA AV.;4453;;Palermo;Comuna 14;1414;C1414BAC
-58,42916035;-34,59499511;123;LOCAL;2013;4U;1;VIA PUBLICA;AV. CORDOBA;CORDOBA AV.;4500;;Villa Crespo;Comuna 15;1414;C1414BAP
-58,43006709;-34,5944331;124;YAGMOUR;2013;4U;1;VIA PUBLICA;AV. CORDOBA;CORDOBA AV.;4600;;Villa Crespo;Comuna 15;1414;C1414BAQ
-58,38246432;-34,60364659;125;OCA;2013;4U;1;VIA PUBLICA;AV. CORRIENTES;CORRIENTES AV.;1111;;San Nicolas;Comuna 1;1043;C1043AAL
-58,3844922;-34,60376559;126;ORIX;2013;4U;1;VIA PUBLICA;AV. CORRIENTES;CORRIENTES AV.;1255;;San Nicolas;Comuna 1;1043;C1043AAM
-58,38476823;-34,60398953;127;KIOSKO;2013;4U;1;VIA PUBLICA;AV. CORRIENTES;CORRIENTES AV.;1280;;San Nicolas;Comuna 1;1043;C1043AAZ
-58,38549129;-34,60382419;128;EQUUS;2013;4U;1;VIA PUBLICA;AV. CORRIENTES;CORRIENTES AV.;1321;;San Nicolas;Comuna 1;1043;C1043ABA
-58,38601539;-34,60385491;129;LOS INMORTALES;2013;4U;1;VIA PUBLICA;AV. CORRIENTES;CORRIENTES AV.;1365;;San Nicolas;Comuna 1;1043;C1043ABA
-58,38686735;-34,60411815;130;BANCO CIUDAD;2013;4U;1;VIA PUBLICA;AV. CORRIENTES;CORRIENTES AV.;1418;;San Nicolas;Comuna 1;1042;C1042AAN
-58,38715772;-34,60393512;131;COLEGIO PUBLICO DE ABOGADOS;2013;4U;1;VIA PUBLICA;AV. CORRIENTES;CORRIENTES AV.;1441;;San Nicolas;Comuna 1;1042;C1042AAA
-58,38803416;-34,60421482;132;PIZZERIA;2013;4U;1;VIA PUBLICA;AV. CORRIENTES;CORRIENTES AV.;1504;;San Nicolas;Comuna 1;1042;C1042AAO
-58,3891205;-34,60409679;133;KIOSKO;2013;4U;1;VIA PUBLICA;AV. CORRIENTES;CORRIENTES AV.;1587;;San Nicolas;Comuna 1;1042;C1042AAB
-58,39152936;-34,60449203;134;OFICINAS;2013;4U;1;VIA PUBLICA;AV. CORRIENTES;CORRIENTES AV.;1750;;San Nicolas;Comuna 1;1042;C1042AAQ
-58,39414751;-34,60436142;135;RESTAURANTE GREEN LIFE;2013;4U;1;VIA PUBLICA;AV. CORRIENTES;CORRIENTES AV.;1915;;Balvanera;Comuna 3;1045;C1045AAB
-58,39453025;-34,60457803;136;PIZZA ZAPI;2013;4U;1;VIA PUBLICA;AV. CORRIENTES;CORRIENTES AV.;1948;;Balvanera;Comuna 3;1045;C1045AAO
-58,39776323;-34,60445584;137;BANCO PATAGONIA;2013;4U;1;VIA PUBLICA;AV. CORRIENTES;CORRIENTES AV.;2171;;Balvanera;Comuna 3;1045;C1045AAD
-58,3988453;-34,6044994;138;BANCO FRANCES;2013;4U;1;VIA PUBLICA;AV. CORRIENTES;CORRIENTES AV.;2249;;Balvanera;Comuna 3;1046;C1046AAA
-58,40120272;-34,60479248;139;SANTANDER;2013;4U;1;VIA PUBLICA;AV. CORRIENTES;CORRIENTES AV.;2426;;Balvanera;Comuna 3;1046;C1046AAP
-58,40155958;-34,60480375;140;BANCO HSBC;2013;4U;1;VIA PUBLICA;AV. CORRIENTES;CORRIENTES AV.;2458;;Balvanera;Comuna 3;1046;C1046AAP
-58,40155958;-34,60480375;141;BANCO CIUDAD;2013;4U;1;VIA PUBLICA;AV. CORRIENTES;CORRIENTES AV.;2458;;Balvanera;Comuna 3;1046;C1046AAP
-58,41083243;-34,60415111;142;JUST SPORT;2013;4U;1;VIA PUBLICA;AV. CORRIENTES;CORRIENTES AV.;3234;;Balvanera;Comuna 3;1193;C1193AAR
-58,41101471;-34,60394283;143;SHOPPING ABASTO;2013;4U;1;VIA PUBLICA;AV. CORRIENTES;CORRIENTES AV.;3247;;Balvanera;Comuna 3;1193;C1193AAE
-58,41101471;-34,60394283;144;SHOPPING ABASTO;2013;4U;1;VIA PUBLICA;AV. CORRIENTES;CORRIENTES AV.;3247;;Balvanera;Comuna 3;1193;C1193AAE
-58,41307411;-34,60402517;145;BANCO CIUDAD;2013;4U;1;VIA PUBLICA;AV. CORRIENTES;CORRIENTES AV.;3399;;Balvanera;Comuna 3;1193;C1193AAF
-58,41503168;-34,60381891;146;ARGENPER;2013;4U;1;VIA PUBLICA;AV. CORRIENTES;CORRIENTES AV.;3547;;Almagro;Comuna 5;1194;C1194AAB
-58,41668897;-34,60372031;147;CORREO ARGENTINO;2013;4U;1;VIA PUBLICA;AV. CORRIENTES;CORRIENTES AV.;3700;;Almagro;Comuna 5;1194;C1194AAP
-58,41683353;-34,60348064;148;LA CONTINENTAL;2013;4U;1;VIA PUBLICA;AV. CORRIENTES;CORRIENTES AV.;3701;;Almagro;Comuna 5;1194;C1194AAD
-58,41794467;-34,60358672;149;ICBC;2013;4U;1;VIA PUBLICA;AV. CORRIENTES;CORRIENTES AV.;3800;;Almagro;Comuna 5;1194;C1194AAQ
-58,42025368;-34,60313637;150;MOVISTAR;2013;4U;1;VIA PUBLICA;AV. CORRIENTES;CORRIENTES AV.;3953;;Almagro;Comuna 5;1194;C1194AAF
-58,42282526;-34,60288039;151;BAR LA ORQUIDEA;2013;4U;1;VIA PUBLICA;AV. CORRIENTES;CORRIENTES AV.;4113;;Almagro;Comuna 5;1195;C1195AAA
-58,42298883;-34,60308205;152;BANCO CREDICOP;2013;4U;1;VIA PUBLICA;AV. CORRIENTES;CORRIENTES AV.;4124;;Almagro;Comuna 5;1195;C1195AAN
-58,4233595;-34,60304526;153;BANCO GALICIA;2013;4U;1;VIA PUBLICA;AV. CORRIENTES;CORRIENTES AV.;4152;;Almagro;Comuna 5;1195;C1195AAN
-58,37279568;-34,60305983;154;SEÑOR SANDWICH;2013;4U;1;VIA PUBLICA;AV. CORRIENTES;CORRIENTES AV.;419;;San Nicolas;Comuna 1;1043;C1043AAE
-58,42524141;-34,60264067;155;BANCO NACION;2013;4U;1;VIA PUBLICA;AV. CORRIENTES;CORRIENTES AV.;4279;;Almagro;Comuna 5;1195;C1195AAB
-58,42657128;-34,60250917;156;ESCUELA DE PASTELERIA;2013;4U;1;VIA PUBLICA;AV. CORRIENTES;CORRIENTES AV.;4367;;Almagro;Comuna 5;1195;C1195AAC
-58,37305764;-34,60307589;157;ORSNA;2013;4U;1;VIA PUBLICA;AV. CORRIENTES;CORRIENTES AV.;441;;San Nicolas;Comuna 1;1043;C1043AAE
-58,42901694;-34,60248315;158;CENTRO DOS;2013;4U;1;VIA PUBLICA;AV. CORRIENTES;CORRIENTES AV.;4524;;Almagro;Comuna 5;1195;C1195AAR
-58,42958806;-34,60220683;159;RESTAURANT;2013;4U;1;VIA PUBLICA;AV. CORRIENTES;CORRIENTES AV.;4567;;Almagro;Comuna 5;1195;C1195AAE
-58,43424943;-34,60150269;160;EL TREBOL;2013;4U;1;VIA PUBLICA;AV. CORRIENTES;CORRIENTES AV.;4854;;Villa Crespo;Comuna 15;1414;C1414AJO
-58,43753909;-34,60040149;161;BANCO SANTANDER;2013;4U;1;VIA PUBLICA;AV. CORRIENTES;CORRIENTES AV.;5100;;Villa Crespo;Comuna 15;1414;C1414AJQ
-58,43780406;-34,60007938;162;BANCO FRANCES;2013;4U;1;VIA PUBLICA;AV. CORRIENTES;CORRIENTES AV.;5117;;Villa Crespo;Comuna 15;1414;C1414AJE
-58,43899588;-34,5998548;163;EL IMPERIO;2013;4U;1;VIA PUBLICA;AV. CORRIENTES;CORRIENTES AV.;5206;;Villa Crespo;Comuna 15;1414;C1414AJS
-58,44060466;-34,59835701;164;BANCO ICBC;2013;4U;1;VIA PUBLICA;AV. CORRIENTES;CORRIENTES AV.;5386;;Villa Crespo;Comuna 15;1414;C1414AJT
-58,44045711;-34,59816874;165;BANCO PROVINCIA;2013;4U;1;VIA PUBLICA;AV. CORRIENTES;CORRIENTES AV.;5391;;Villa Crespo;Comuna 15;1414;C1414AJG
-58,44121258;-34,59779292;166;BONAFIDE;2013;4U;1;VIA PUBLICA;AV. CORRIENTES;CORRIENTES AV.;5444;;Villa Crespo;Comuna 15;1414;C1414AJU
-58,44205006;-34,59701579;167;TARJETA NARANJA;2013;4U;1;VIA PUBLICA;AV. CORRIENTES;CORRIENTES AV.;5530;;Villa Crespo;Comuna 15;1414;C1414AJV
-58,44212815;-34,59661813;168;BANCO ITAU;2013;4U;1;VIA PUBLICA;AV. CORRIENTES;CORRIENTES AV.;5563;;Villa Crespo;Comuna 15;1414;C1414AJI
-58,44245215;-34,59664265;169;PIZZERIA NAPOLES;2013;4U;1;VIA PUBLICA;AV. CORRIENTES;CORRIENTES AV.;5580;;Villa Crespo;Comuna 15;1414;C1414AJV
-58,37469905;-34,60339342;170;PERSONAL;2013;4U;1;VIA PUBLICA;AV. CORRIENTES;CORRIENTES AV.;566;;San Nicolas;Comuna 1;1043;C1043AAS
-58,44677056;-34,59263586;171;BAR DOLCE HORA;2013;4U;1;VIA PUBLICA;AV. CORRIENTES;CORRIENTES AV.;6096;;Villa Crespo;Comuna 15;1414;C1414AKN
-58,37695569;-34,60353172;172;IGLESIA;2013;4U;1;VIA PUBLICA;AV. CORRIENTES;CORRIENTES AV.;718;;San Nicolas;Comuna 1;1043;C1043AAU
-58,3774157;-34,60355989;173;DALISA;2013;4U;1;VIA PUBLICA;AV. CORRIENTES;CORRIENTES AV.;756;;San Nicolas;Comuna 1;1043;C1043AAU
-58,38050994;-34,60374942;174;BONAFIDE;2013;4U;1;VIA PUBLICA;AV. CORRIENTES;CORRIENTES AV.;974;;San Nicolas;Comuna 1;1043;C1043AAW
-58,37862471;-34,60341699;175;SPRAYETTE;2013;4U;1;VIA PUBLICA;AV. CORRIENTES;CORRIENTES AV.;837;;San Nicolas;Comuna 1;1043;C1043AAI
-58,38279301;-34,60298369;176;EDIFICIO DIAGONAL PLAZA;2013;4U;1;VIA PUBLICA;AV. ROQUE SAENZ PEÑA;SAENZ PEÑA, ROQUE, PRES. DIAGONAL NORTE AV.;1145;;San Nicolas;Comuna 1;;
-58,38333323;-34,6029697;177;PODER JUDICIAL DE LA NACION;2013;4U;1;VIA PUBLICA;AV. ROQUE SAENZ PEÑA-ESPACIOS PUBLICOS;SAENZ PEÑA, ROQUE, PRES. DIAGONAL NORTE AV.;1184;;San Nicolas;Comuna 1;;
-58,37585261;-34,6068857;178;MINISTERIO DEL INTERIOR;2013;4U;1;VIA PUBLICA;AV. ROQUE SAENZ PEÑA-ESPACIOS PUBLICOS;SAENZ PEÑA, ROQUE, PRES. DIAGONAL NORTE AV.;660;;San Nicolas;Comuna 1;;
-58,37728113;-34,60613723;179;TRIBUNALES DE TRABAJO;2013;4U;1;VIA PUBLICA;AV. ROQUE SAENZ PEÑA-ESPACIOS PUBLICOS;SAENZ PEÑA, ROQUE, PRES. DIAGONAL NORTE AV.;760;;San Nicolas;Comuna 1;;
-58,37878081;-34,6050938;180;BANCO GALICIA;2013;4U;1;VIA PUBLICA;AV. ROQUE SAENZ PEÑA;SAENZ PEÑA, ROQUE, PRES. DIAGONAL NORTE AV.;865;;San Nicolas;Comuna 1;;
-58,380335;-34,60453425;181;RANDTAD;2013;4U;1;VIA PUBLICA;AV. ROQUE SAENZ PEÑA;SAENZ PEÑA, ROQUE, PRES. DIAGONAL NORTE AV.;950;;San Nicolas;Comuna 1;;
-58,43717086;-34,59615344;182;OUMS;2013;4U;1;VIA PUBLICA;CCCA AGUIRRE-COMERCIO AMIGO;AGUIRRE;686;;Villa Crespo;Comuna 15;1414;C1414ASN
-58,43764971;-34,59570085;183;COMPLOT;2013;4U;1;VIA PUBLICA;CCCA AGUIRRE;AGUIRRE;730;;Villa Crespo;Comuna 15;1414;C1414ASP
-58,43868466;-34,59430827;184;VIVIENDA;2013;4U;1;VIA PUBLICA;CCCA AGUIRRE;AGUIRRE;883;;Villa Crespo;Comuna 15;1414;C1414ASQ
-58,43961365;-34,59360577;185;VIVIENDA;2013;4U;1;VIA PUBLICA;CCCA AGUIRRE;AGUIRRE;980;;Villa Crespo;Comuna 15;1414;C1414AST
-58,43824431;-34,59522756;186;CHRISTIAN LACROIX;2013;4U;1;VIA PUBLICA;CCCA AGUIRRE;GURRUCHAGA;787;;Villa Crespo;Comuna 15;1414;C1414DHO
-58,43772046;-34,59467708;187;BUENOS AIRES MALL;2013;4U;1;VIA PUBLICA;CCCA AGUIRRE;GURRUCHAGA;842;;Villa Crespo;Comuna 15;1414;C1414DHR
-58,43701901;-34,5945323;188;AYRES;2013;4U;1;VIA PUBLICA;CCCA AGUIRRE;LOYOLA;692;;Villa Crespo;Comuna 15;1414;C1414AUN
-58,43624399;-34,59868296;189;BICICLETERIA JUNIOR´S;2013;4U;1;VIA PUBLICA;CCCA AGUIRRE;RAMIREZ DE VELASCO, JUAN;465;;Villa Crespo;Comuna 15;1414;C1414AQI
-58,43831665;-34,59647537;190;ALMACEN PURISTA;2013;4U;1;VIA PUBLICA;CCCA AGUIRRE-COMERCIO AMIGO;RAMIREZ DE VELASCO, JUAN;701;;Villa Crespo;Comuna 15;1414;C1414AQO
-58,4391807;-34,59726362;191;CRESPIN;2013;4U;1;VIA PUBLICA;CCCA AGUIRRE;VERA;699;;Villa Crespo;Comuna 15;1414;C1414AOM
-58,42560212;-34,59238001;192;BICICLETAS ARAOZ;2013;4U;1;VIA PUBLICA;CCCA AGUIRRE-COMERCIO AMIGO;ARAOZ;1458;;Palermo;Comuna 14;1414;C1414DQD
-58,4288618;-34,59033633;193;NUCHA;2013;4U;1;VIA PUBLICA;CCCA PALERMO;ARMENIA;1540;;Palermo;Comuna 14;1414;C1414DKH
-58,42825181;-34,59015776;194;OUMS;2013;4U;1;VIA PUBLICA;CCCA AGUIRRE-COMERCIO AMIGO;ARMENIA;1595;;Palermo;Comuna 14;1414;C1414DKG
-58,42747303;-34,58969514;195;VERO ALFIE;2013;4U;1;VIA PUBLICA;CCCA AGUIRRE-COMERCIO AMIGO;ARMENIA;1665;;Palermo;Comuna 14;1414;C1414DKI
-58,42677652;-34,5891801;196;KEY BISCAYNE;2013;4U;1;VIA PUBLICA;CCCA PALERMO;ARMENIA;1735;;Palermo;Comuna 14;1414;C1414DKK
-58,42592571;-34,58839478;197;TRIPPIN;2013;4U;1;VIA PUBLICA;CCCA PALERMO-COMERCIO AMIGO;ARMENIA;1838;;Palermo;Comuna 14;1414;C1414DKN
-58,42554891;-34,58814554;198;JULIETA SEDLER;2013;4U;1;VIA PUBLICA;CCCA PALERMO-COMERCIO AMIGO;ARMENIA;1886;;Palermo;Comuna 14;1414;C1414DKN
-58,42516972;-34,58795387;199;GABY DI GRAZIA DECO;2013;4U;1;VIA PUBLICA;CCCA PALERMO;ARMENIA;1914;;Palermo;Comuna 14;1414;C1414DKP
-58,44242752;-34,58595853;200;ORENSE;2013;4U;1;VIA PUBLICA;CCCA PALERMO-COMERCIO AMIGO;CORDOBA AV.;5801;;Palermo;Comuna 14;1414;C1414BBE
-58,43870872;-34,58730023;201;NICETO CLUB;2017;1U;2;VIA PUBLICA;Locales Amigos;VEGA, NICETO, CNEL. AV.;5510;;Palermo;Comuna 14;1414;C1414BFD
-58,42491242;-34,59074271;202;ONLY BIKES;2013;4U;1;VIA PUBLICA;CCCA PALERMO-COMERCIO AMIGO;SCALABRINI ORTIZ, RAUL AV.;1602;;Palermo;Comuna 14;1414;C1414DOQ
-58,41570503;-34,59659623;203;ENDEMOL;2013;4U;1;VIA PUBLICA;CCCA PALERMO;CABRERA, JOSE A.;3507;;Palermo;Comuna 14;1186;C1186AAO
-58,42627583;-34,58857337;204;AGARRATE CATALINA;2013;4U;1;VIA PUBLICA;CCCA PALERMO;COSTA RICA;4605;;Palermo;Comuna 14;1414;C1414BSI
-58,42735291;-34,5880278;205;QM;2013;4U;1;VIA PUBLICA;CCCA PALERMO;COSTA RICA;4700;;Palermo;Comuna 14;1414;C1414BSJ
-58,43463916;-34,58269333;206;KENTUCKY;2013;4U;1;VIA PUBLICA;CCCA PALERMO;COSTA RICA;0;FITZ ROY;Palermo;Comuna 14;;
-58,42571824;-34,59042121;207;CIBELES;2013;4U;1;VIA PUBLICA;CCCA PALERMO-COMERCIO AMIGO;EL SALVADOR;4570;;Palermo;Comuna 14;1414;C1414BPH
-58,425897;-34,59030535;208;URBAN STATION;2013;4U;1;VIA PUBLICA;CCCA PALERMO;EL SALVADOR;4588;;Palermo;Comuna 14;1414;C1414BPH
-58,42740633;-34,58929843;209;LEVI´S;2013;4U;1;VIA PUBLICA;CCCA PALERMO-COMERCIO AMIGO;EL SALVADOR;4714;;Palermo;Comuna 14;1414;C1414BPL
-58,43108135;-34,58688206;210;MUCHACHOBAR;2013;4U;1;VIA PUBLICA;CCCA PALERMO-COMERCIO AMIGO;EL SALVADOR;5100;;Palermo;Comuna 14;1414;C1414BPR
-58,43656355;-34,58224983;211;MOREMORE;2013;4U;1;VIA PUBLICA;CCCA PALERMO-COMERCIO AMIGO;EL SALVADOR;5721;;Palermo;Comuna 14;1414;C1414BQG
-58,4396868;-34,57996333;212;CUSIC;2013;4U;1;VIA PUBLICA;CCCA PALERMO-COMERCIO AMIGO;EL SALVADOR;6016;;Palermo;Comuna 14;1414;C1414BQN
-58,43595353;-34,58867228;213;SOHO BIKES;2013;4U;1;VIA PUBLICA;CCCA PALERMO-COMERCIO AMIGO;GODOY CRUZ;1518;;Palermo;Comuna 14;1414;C1414CYH
-58,42939848;-34,59063366;214;FIFI ALMACEN;2013;4U;1;VIA PUBLICA;CCCA PALERMO-COMERCIO AMIGO;GORRITI;4812;;Palermo;Comuna 14;1414;C1414BJN
-58,43162467;-34,58898481;215;MUVIN;2013;4U;1;VIA PUBLICA;CCCA PALERMO-COMERCIO AMIGO;GORRITI;5051;;Palermo;Comuna 14;1414;C1414BJQ
-58,43258522;-34,58836797;216;SORIA;2013;4U;1;VIA PUBLICA;CCCA PALERMO-COMERCIO AMIGO;GORRITI;5151;;Palermo;Comuna 14;1414;C1414BJS
-58,4337894;-34,58747079;217;DON JACINTO PARRILLITA;2013;4U;1;VIA PUBLICA;CCCA PALERMO-COMERCIO AMIGO;GORRITI;5299;;Palermo;Comuna 14;1414;C1414BJU
-58,43696176;-34,58494654;218;DASHI;2013;4U;1;VIA PUBLICA;CCCA PALERMO;GORRITI;5591;;Palermo;Comuna 14;1414;C1414BKC
-58,43784716;-34,58457408;219;MONOCHROME;2013;4U;1;VIA PUBLICA;CCCA PALERMO-COMERCIO AMIGO;GORRITI;5656;;Palermo;Comuna 14;1414;C1414BKF
-58,43948905;-34,58334426;220;LA MOLINA;2013;4U;1;VIA PUBLICA;CCCA PALERMO-COMERCIO AMIGO;GORRITI;5806;;Palermo;Comuna 14;1414;C1414BKJ
-58,44006348;-34,58291453;221;OLSEN;2013;4U;1;VIA PUBLICA;CCCA PALERMO-COMERCIO AMIGO;GORRITI;5870;;Palermo;Comuna 14;1414;C1414BKJ
-58,44093111;-34,58226546;222;MATTONE;2013;4U;1;VIA PUBLICA;CCCA PALERMO-COMERCIO AMIGO;GORRITI;5950;;Palermo;Comuna 14;1414;C1414BKL
-58,43116542;-34,59045553;223;PEHACHE;2013;4U;1;VIA PUBLICA;CCCA PALERMO-COMERCIO AMIGO;GURRUCHAGA;1418;;Palermo;Comuna 14;1414;C1414DID
-58,42740236;-34,5880918;224;QM;2013;4U;1;VIA PUBLICA;CCCA PALERMO;GURRUCHAGA;0;COSTA RICA;Palermo;Comuna 14;;
-58,4281269;-34,58855719;225;DIESEL;2013;4U;1;VIA PUBLICA;CCCA PALERMO;GURRUCHAGA;0;EL SALVADOR;Palermo;Comuna 14;;
-58,42940898;-34,58938353;226;LIBRERIA;2013;4U;1;VIA PUBLICA;CCCA PALERMO;GURRUCHAGA;0;HONDURAS;Palermo;Comuna 14;;
-58,42996609;-34,58995844;227;BICICLETERIA BICIUP;2013;4U;1;VIA PUBLICA;CCCA PALERMO-COMERCIO AMIGO;GURRUCHAGA;1519;;Palermo;Comuna 14;1414;C1414DIE
-58,43110407;-34,58825773;228;BISTROT;2013;4U;1;VIA PUBLICA;CCCA PALERMO;HONDURAS;5090;;Palermo;Comuna 14;1414;C1414BMR
-58,43196069;-34,5877003;229;SOCIAL PARAISO;2013;4U;1;VIA PUBLICA;CCCA PALERMO;HONDURAS;5182;;Palermo;Comuna 14;1414;C1414BMT
-58,43475139;-34,58522381;230;MOVISTAR;2013;4U;1;VIA PUBLICA;CCCA PALERMO;HONDURAS;5473;;Palermo;Comuna 14;1414;C1414BNA
-58,43689951;-34,58360739;231;AEROPUERTOS ARGENTINA 2000;2013;4U;1;VIA PUBLICA;CCCA PALERMO;HONDURAS;5663;;Palermo;Comuna 14;1414;C1414BNE
-58,43625796;-34,58427471;232;RESTAURANTE;2013;4U;1;VIA PUBLICA;CCCA PALERMO;HONDURAS;0;FITZ ROY;Palermo;Comuna 14;;
-58,42440283;-34,58865321;233;PROYECTO CUADRILLA;2013;4U;1;VIA PUBLICA;CCCA PALERMO-COMERCIO AMIGO;NICARAGUA;4519;;Palermo;Comuna 14;1414;C1414BVE
-58,42738078;-34,58637273;234;LA MERSA;2013;4U;1;VIA PUBLICA;CCCA PALERMO-COMERCIO AMIGO;NICARAGUA;4835;;Palermo;Comuna 14;1414;C1414BVK
-58,43822194;-34,57812057;235;PANI;2013;4U;1;VIA PUBLICA;CCCA PALERMO-COMERCIO AMIGO;NICARAGUA;6048;;Palermo;Comuna 14;1414;C1414BWN
-58,43856312;-34,57755895;236;OUI OUI;2013;4U;1;VIA PUBLICA;CCCA PALERMO-COMERCIO AMIGO;NICARAGUA;6099;;Palermo;Comuna 14;1414;C1414BWM
-58,43063604;-34,58887471;237;TAZZ;2013;4U;1;VIA PUBLICA;CCCA PALERMO;SERRANO;1556;;Palermo;Comuna 14;1414;C1414DFF
-58,44133796;-34,58361281;238;ENDEMOL;2013;4U;1;VIA PUBLICA;CCCA PALERMO;RAVIGNANI, EMILIO, DR.;1493;;Palermo;Comuna 14;1414;C1414CPI
-58,4333479;-34,59064831;239;FABRICA DE LUZ;2013;4U;1;VIA PUBLICA;CCCA PALERMO;SERRANO;1308;;Palermo;Comuna 14;1414;C1414DFB
-58,43129458;-34,58803144;240;INFINIT;2013;4U;1;VIA PUBLICA;CCCA PALERMO;THAMES;1600;;Palermo;Comuna 14;1414;C1414DDF
-58,42931748;-34,58677732;241;ESTUDIO V;2013;4U;1;VIA PUBLICA;CCCA PALERMO-COMERCIO AMIGO;THAMES;1800;;Palermo;Comuna 14;1414;C1414DDJ
-58,43292756;-34,58811571;242;BAR LIBERTAD;2013;4U;1;VIA PUBLICA;CCCA PALERMO;URIARTE;0;GORRITI;Palermo;Comuna 14;;
-58,42869844;-34,59050531;243;LE COQ SPORTIF;2013;4U;1;VIA PUBLICA;COMERCIO AMIGO;ARMENIA;1539;;Palermo;Comuna 14;1414;C1414DKG
-58,41273089;-34,5919609;244;AMERICAN BIKE;2013;4U;1;VIA PUBLICA;COMERCIO AMIGO;DIAZ, CNEL. AV.;1664;;Palermo;Comuna 14;1425;C1425DQP
-58,45802956;-34,56872076;245;LORD BIKE;2013;4U;1;VIA PUBLICA;COMERCIO AMIGO;CRAMER AV.;1720;;Belgrano;Comuna 13;1426;C1426APD
-58,4583916;-34,5710558;246;NEW GARDEN;2013;4U;1;VIA PUBLICA;COMERCIO AMIGO;ELCANO AV.;3015;;Colegiales;Comuna 13;1426;C1426EJB
-58,45992445;-34,57799686;247;PEGASO PATAGONIA;2013;4U;1;VIA PUBLICA;COMERCIO AMIGO;ELCANO AV.;3584;;Colegiales;Comuna 13;1426;C1426EJT
-58,37949179;-34,64947845;248;LOS LAURELES;2013;1U;2;VIA PUBLICA;COMERCIO AMIGO;IRIARTE, GRAL. AV.;2290;;Barracas;Comuna 4;1291;C1291ACB
-58,37294906;-34,64670971;249;BAR EL PROGRESO;2013;4U;1;VIA PUBLICA;COMERCIO AMIGO;MONTES DE OCA, MANUEL AV.;1702;;Barracas;Comuna 4;1270;C1270ABR
-58,37594725;-34,6065801;250;SPORT CLUB;2013;4U;2;VIA PUBLICA;AV. ROQUE SAENZ PEÑA-COMERCIO AMIGO;SAENZ PEÑA, ROQUE, PRES. DIAGONAL NORTE AV.;647;;San Nicolas;Comuna 1;;
-58,40890202;-34,58118196;251;TU HOGAR SUSTENTABLE;2013;1U;3;VIA PUBLICA;COMERCIO AMIGO;CABELLO;3433;;Palermo;Comuna 14;1425;C1425API
-58,43685535;-34,55354842;252;CUCINA PARADISO;2013;4U;1;VIA PUBLICA;COMERCIO AMIGO;CASTAÑEDA;1871;;Belgrano;Comuna 13;;
-58,43396933;-34,58379451;253;NOAVESTRUZ TEATRO;2013;4U;1;VIA PUBLICA;COMERCIO AMIGO;HUMBOLDT;1857;;Palermo;Comuna 14;1414;C1414CTS
-58,42226716;-34,59809287;254;LE COQ SPORTIF;2013;4U;1;VIA PUBLICA;COMERCIO AMIGO;LAVALLE;4022;;Almagro;Comuna 5;1190;C1190ABB
-58,38456823;-34,59381128;255;BICICLETERIA CANAGLIA;2013;1U;2;VIA PUBLICA;COMERCIO AMIGO;LIBERTAD;1238;;Retiro;Comuna 1;1012;C1012AAZ
-58,48571522;-34,5765013;256;CHUNGO;2013;4U;1;VIA PUBLICA;COMERCIO AMIGO;OLAZABAL AV.;5092;;Villa Urquiza;Comuna 12;1431;C1431CGT
-58,3782954;-34,65313376;257;3 ESQUINAS;2013;1U;2;VIA PUBLICA;COMERCIO AMIGO;CRUZ, OSVALDO AV.;2302;;Barracas;Comuna 4;1293;C1293ADO
-58,37874869;-34,64084576;258;ECLAIR;2013;1U;2;VIA PUBLICA;COMERCIO AMIGO;LANIN;168;;Barracas;Comuna 4;1274;C1274AED
-58,37873994;-34,65193831;259;SANTA MARIA DEL BUEN AIRE Y SANTO DOMINGO;2013;1U;2;VIA PUBLICA;COMERCIO AMIGO;SANTO DOMINGO;2302;;Barracas;Comuna 4;1293;C1293AFD
-58,37952924;-34,64181424;260;LA FLOR DE BARRACAS;2013;4U;1;VIA PUBLICA;COMERCIO AMIGO;SUAREZ AV.;2095;;Barracas;Comuna 4;1288;C1288AFC
-58,41169185;-34,57990363;261;THE PICK MARKET;2013;4U;1;VIA PUBLICA;COMERCIO AMIGO;UGARTECHE;3154;;Palermo;Comuna 14;1425;C1425EVH
-58,37478311;-34,65548561;262;EL PUENTECITO;2013;1U;2;VIA PUBLICA;COMERCIO AMIGO;VIEYTES;1895;;Barracas;Comuna 4;1275;C1275AGU
-58,37952924;-34,64181424;263;LA FLOR DE BARRACAS;2013;4U;1;VIA PUBLICA;COMERCIO AMIGO;SUAREZ AV.;2095;;Barracas;Comuna 4;1288;C1288AFC
-58,37502979;-34,60695097;264;EDIFICIO TORNQUIST;2013;4U;1;VIA PUBLICA;EDIFICIOS CULTURALES;MITRE, BARTOLOME;0;FLORIDA;San Nicolas;Comuna 1;;
-58,41644652;-34,62027321;265;TIMBRE 4;2013;4U;1;VIA PUBLICA;EDIFICIOS CULTURALES;BOEDO AV.;640;;Almagro;Comuna 5;1218;C1218AAP
-58,38029609;-34,59910112;266;ALIANZA FRANCESA;2013;4U;1;VIA PUBLICA;EDIFICIOS CULTURALES;CORDOBA AV.;936;;San Nicolas;Comuna 1;1054;C1054AAV
-58,38836624;-34,60424771;267;TEATRO SAN MARTIN;2013;4U;1;VIA PUBLICA;EDIFICIOS CULTURALES;CORRIENTES AV.;1530;;San Nicolas;Comuna 1;1042;C1042AAO
-58,38856942;-34,60404613;268;CENTRO CULTURAL DE COOPERACION;2013;4U;1;VIA PUBLICA;EDIFICIOS CULTURALES;CORRIENTES AV.;1543;;San Nicolas;Comuna 1;1042;C1042AAB
-58,39488339;-34,604379;269;TEATRO BAR LA CASONA;2013;4U;1;VIA PUBLICA;EDIFICIOS CULTURALES;CORRIENTES AV.;1975;;Balvanera;Comuna 3;1045;C1045AAB
-58,37886474;-34,60343169;270;TEATRO GRAN REX;2013;4U;1;VIA PUBLICA;EDIFICIOS CULTURALES;CORRIENTES AV.;857;;San Nicolas;Comuna 1;1043;C1043AAI
-58,44573719;-34,58422644;271;TEATRO REGIO;2018;1U;4;VIA PUBLICA;EDIFICIOS CULTURALES;CORDOBA AV.;6056;;Chacarita;Comuna 15;1427;C1427BZN
-58,41950156;-34,57997125;272;TEATRO SARMIENTO;2013;4U;1;VIA PUBLICA;EDIFICIOS CULTURALES;SARMIENTO AV.;2715;;Palermo;Comuna 14;1425;C1425FGB
-58,37057518;-34,61307598;273;LA TRASTIENDA;2013;4U;1;VIA PUBLICA;EDIFICIOS CULTURALES;BALCARCE;460;;Monserrat;Comuna 1;1064;C1064AAJ
-58,37064379;-34,61580298;274;TEATRO MOLIERE;2013;4U;1;VIA PUBLICA;EDIFICIOS CULTURALES;CHILE AV.;0;BALCARCE;Monserrat;Comuna 1;;
-58,36144675;-34,63921583;275;TEATRO DE LA RIBERA;2013;4U;1;VIA PUBLICA;EDIFICIOS CULTURALES;DON PEDRO DE MENDOZA AV.;1875;;La Boca;Comuna 4;1169;C1169AAC
-58,40956796;-34,60586857;276;PANAL 361;2018;1U;4;Via Publica/ Internos;Centro Cultural Abasto;JAURES, JEAN;361;;Balvanera;Comuna 3;1215;C1215ACE
-58,38756789;-34,60879926;278;TEATRO MAIPO;2013;4U;1;VIA PUBLICA;EDIFICIOS CULTURALES;RIVADAVIA AV.;1499;;San Nicolas;Comuna 1;1033;C1033AAE
-58,37404877;-34,59963951;279;MONASTERIO DE SANTA CATALINA DE SIENA;2013;4U;1;INTERIOR;EDIFICIOS CULTURALES;SAN MARTIN;705;;San Nicolas;Comuna 1;1004;C1004AAO
-58,38863493;-34,60536858;280;CENTRO CULTURAL SAN MARTIN;2013;4U;3;INTERIOR;EDIFICIOS CULTURALES;SARMIENTO;1551;;San Nicolas;Comuna 1;1042;C1042ABC
-58,4432838;-34,59587052;281;SECRETARIA NACIONAL DE JUSTICIA- REG. NAC. DE LA PROP. AUTOMOTOR;2013;4U;1;VIA PUBLICA;EDIFICIOS PUBLICOS;CORRIENTES AV.;5666;;Villa Crespo;Comuna 15;1414;C1414AJW
-58,37567507;-34,60876305;282;CONSEJO DE LA MAJISTRATURA;2013;4U;1;VIA PUBLICA;EDIFICIOS PUBLICOS;DE MAYO AV.;654;;Monserrat;Comuna 1;1084;C1084AAO
-58,36826777;-34,62326623;283;MINISTERIO PUBLICO FISCAL;2013;4U;1;INTERIOR;EDIFICIOS PUBLICOS;PASEO COLON AV.;1333;;San Telmo;Comuna 1;1063;C1063ADA
-58,36826777;-34,62326623;284;MINISTERIO PUBLICO FISCAL;2013;4U;1;VIA PUBLICA;EDIFICIOS PUBLICOS;PASEO COLON AV.;1333;;San Telmo;Comuna 1;1063;C1063ADA
-58,43286499;-34,60566674;285;CGPC 6;2013;4U;2;VIA PUBLICA;EDIFICIOS PUBLICOS;PATRICIAS ARGENTINAS AV.;277;;Caballito;Comuna 6;1405;C1405BWC
-58,44127387;-34,5870009;286;SEDE COMUNA 15;2013;4U;1;VIA PUBLICA;EDIFICIOS PUBLICOS;CORDOBA AV.;5690;;Chacarita;Comuna 15;1414;C1414BBP
-58,37071963;-34,61560413;287;MINISTERIO DE DEFENSA DE LA CIUDAD;2013;4U;1;VIA PUBLICA;EDIFICIOS PUBLICOS;BALCARCE;677;;Monserrat;Comuna 1;1064;C1064AAM
-58,40942078;-34,58723701;288;CGPC 14;2013;4U;1;VIA PUBLICA;EDIFICIOS PUBLICOS;BERUTI;3325;;Palermo;Comuna 14;1425;C1425BBQ
-58,45125893;-34,63147913;289;DG MUSICA;2013;4U;2;VIA PUBLICA;EDIFICIOS PUBLICOS;CURAPALIGUE;585;;Parque Chacabuco;Comuna 7;1406;C1406DAF
-58,42477497;-34,65034887;290;CGPC 4;2013;4U;1;VIA PUBLICA;EDIFICIOS PUBLICOS;BARCO CENTENERA DEL;2906;;Nueva Pompeya;Comuna 4;1437;C1437ACO
-58,44171281;-34,58003478;291;DISTRITO AUDIOVISUAL;2013;4U;3;INTERIOR;EDIFICIOS PUBLICOS;DORREGO;1898;;Colegiales;Comuna 13;1414;C1414CLN
-58,44115177;-34,63210509;292;SUB SEDE CGPC 6;2013;4U;1;INTERIOR;EDIFICIOS PUBLICOS;MITRE, EMILIO;956;;Parque Chacabuco;Comuna 7;1424;C1424AYT
-58,44116836;-34,63241075;293;BASE CHACABUCO DE CUERPO DE AGENTES;2013;4U;2;INTERIOR;EDIFICIOS PUBLICOS;MITRE, EMILIO;981;;Parque Chacabuco;Comuna 7;1424;C1424AYS
-58,39112454;-34,62616176;294;DESARROLLO SOCIAL GCBA;2013;4U;2;VIA PUBLICA E INTERIOR;EDIFICIOS PUBLICOS;ENTRE RIOS AV.;1492;;Constitucion;Comuna 1;1133;C1133AAP
-58,4828985;-34,56869727;295;SEDE COMUNA 12;2013;4U;1;VIA PUBLICA;EDIFICIOS PUBLICOS;MILLER;2751;;Villa Urquiza;Comuna 12;1431;C1431GEC
-58,49090282;-34,55116352;296;POLICIA METROPOLITANA COMUNA 12;2013;4U;3;VIA PUBLICA;EDIFICIOS PUBLICOS;RAMALLO;4398;;Saavedra;Comuna 12;1430;C1430CQD
-58,49612312;-34,60189889;297;SEDE COMUNA 11;2013;4U;1;INTERIOR;EDIFICIOS PUBLICOS;GUTIERREZ, RICARDO;3254;;Villa Del Parque;Comuna 11;1417;C1417ECB
-58,39885169;-34,59661659;298;SEDE COMUNA 2;2013;4U;1;INTERIOR;EDIFICIOS PUBLICOS;URIBURU JOSE E., PRES.;1022;;Recoleta;Comuna 2;1114;C1114AAF
-58,38687624;-34,60006395;299;CGPC 1;2013;4U;1;VIA PUBLICA;EDIFICIOS PUBLICOS;URUGUAY AV.;740;;San Nicolas;Comuna 1;1015;C1015ABP
-58,39243183;-34,60425285;300;NEXTEL;2013;4U;1;VIA PUBLICA;EMPRESA AMIGA;CALLAO AV.;410;;Balvanera;Comuna 3;1022;C1022AAR
-58,50152647;-34,59964425;301;NEXTEL;2013;4U;1;VIA PUBLICA;EMPRESA AMIGA;BEIRO, FRANCISCO AV.;3456;;Villa Del Parque;Comuna 11;1419;C1419HYV
-58,4455405;-34,62428258;302;CHUNGO;2013;4U;1;VIA PUBLICA;EMPRESA AMIGA;ALBERDI, JUAN BAUTISTA AV.;1250;;Caballito;Comuna 6;1406;C1406GRO
-58,45766607;-34,56071012;303;CHUNGO;2013;4U;1;VIA PUBLICA;EMPRESA AMIGA;CABILDO AV.;2231;;Belgrano;Comuna 13;1428;C1428AAE
-58,44126236;-34,57166385;304;NEXTEL;2013;4U;1;VIA PUBLICA;EMPRESA AMIGA;CABILDO AV.;451;;Palermo;Comuna 14;1426;C1426AAE
-58,43367758;-34,58322548;305;CHUNGO;2013;4U;1;VIA PUBLICA;EMPRESA AMIGA;HUMBOLDT;1906;;Palermo;Comuna 14;1414;C1414CTV
-58,42078331;-34,60099019;306;NEXTEL;2013;4U;1;VIA PUBLICA;EMPRESA AMIGA;MEDRANO AV.;780;;Almagro;Comuna 5;1179;C1179AAN
-58,39223042;-34,63820608;307;LABORATORIO BRITANIA;2013;4U;1;VIA PUBLICA;EMPRESA AMIGA;LOS PATOS;2175;;Parque Patricios;Comuna 4;1283;C1283ABI
-58,40985102;-34,62915497;308;ESC. PRIMARIA COMUN N° 07 OLEGARIO VICTOR ANDRADE;2018;1;4;VIA PUBLICA;Universidades - Colegios;24 DE NOVIEMBRE;1536;;San Cristobal;Comuna 3;1242;C1242AAH
-58,45494571;-34,55589097;309;ESC. NORMAL SUPERIOR N° 10 JUAN BAUTISTA ALBERDI (ANEXO);2013;4U;1;VIA PUBLICA;ESCUELAS;3 DE FEBRERO;2463;;Belgrano;Comuna 13;1428;C1428AHM
-58,51111673;-34,64631497;310;ESC. DE COMERCIO N° 32 JOSE LEON SUAREZ (ANEXO);2013;4U;1;VIA PUBLICA;ESCUELAS;ACASSUSO;6138;;Liniers;Comuna 9;1408;C1408FDV
-58,44380897;-34,58910804;311;ESC. TECNICA N° 34 ING. ENRIQUE MARTIN HERMITTE;2013;4U;1;VIA PUBLICA;ESCUELAS;AGUIRRE;1473;;Chacarita;Comuna 15;1414;C1414ATC
-58,43282143;-34,64813894;312;ESCUELA MEDIA N°3;2013;4U;1;VIA PUBLICA;ESCUELAS;VEDIA, AGUSTIN DE;2519;;Flores;Comuna 7;1437;C1437ANK
-58,48824606;-34,65666214;313;ESC. PRIMARIA COMUN N° 19 CAJA NACIONAL DE AHORRO Y SEGURO;2013;4U;1;VIA PUBLICA;ESCUELAS;ALBARIÑO;2062;;Mataderos;Comuna 9;;
-58,50375058;-34,62943535;315;ESC. DE DANZAS N° 02 JORGE DONN;2013;4U;1;INTERIOR;ESCUELAS;MAGARIÑOS CERVANTES, A.;5068;;Velez Sarsfield;Comuna 10;;
-58,43501476;-34,57978433;316;ESC. DE COMERCIO N° 31 NACIONES UNIDAS;2013;4U;1;INTERIOR;ESCUELAS;CARRANZA, ANGEL JUSTINIANO;2045;;Palermo;Comuna 14;1414;C1414COY
-58,48030431;-34,67750295;317;ESC. DE COMERCIO N° 12 JUAN XXIII;2013;4U;1;INTERIOR;ESCUELAS;AQUINO;6040;;Villa Lugano;Comuna 8;1439;C1439AEF
-58,38004578;-34,64127362;318;LICEO N°3 / ESC NORMAL SUP. N°5;2013;4U;1;INTERIOR;ESCUELAS;ARCAMENDIA;743;;Barracas;Comuna 4;1274;C1274AAC
-58,51017763;-34,57949671;319;ESC. DE EDUCACION MEDIA N° 01/16° RODOLFO WALSH;2013;4U;1;VIA PUBLICA;ESCUELAS;ARGERICH;5651;;Villa Pueyrredon;Comuna 12;1419;C1419DCC
-58,46712733;-34,622675;320;CFP N° 24;2013;4U;1;INTERIOR;ESCUELAS;ARTIGAS, JOSE GERVASIO, GRAL.;690;;Flores;Comuna 7;1406;C1406ABJ
-58,39288637;-34,63479337;321;ESC. PRIMARIA COMUN N° 18 JUAN ENRIQUE PESTALOZZI;2013;4U;1;VIA PUBLICA;ESCUELAS;CASEROS AV.;2152;;Parque Patricios;Comuna 4;1264;C1264AAO
-58,42157243;-34,63996911;322;ESC. PRIMARIA COMUN N° 05 PROVINCIA DE CORRIENTES;2013;4U;1;VIA PUBLICA;ESCUELAS;CASEROS AV.;4050;;Nueva Pompeya;Comuna 4;1263;C1263AAW
-58,40554326;-34,61299287;323;ESC. TECNICA N° 26 CONFEDERACION SUIZA;2017;1U;8;VIA PUBLICA;ESCUELAS;JUJUY AV.;255;;Balvanera;Comuna 3;1083;C1083AAC
-58,37721959;-34,63004321;324;ESC. TECNICA N° 04 REPUBLICA DEL LIBANO;2013;4U;1;VIA PUBLICA;ESCUELAS;MONTES DE OCA, MANUEL AV.;121;;Barracas;Comuna 4;1270;C1270AAB
-58,40591572;-34,592859;325;LICEO N° 01 JOSE FIGUEROA ALCORTA;2013;4U;1;VIA PUBLICA;ESCUELAS;SANTA FE AV.;2778;;Recoleta;Comuna 2;1425;C1425BGP
-58,50879597;-34,62160927;326;ESC. DE COMERCIO N° 33 MAIPU;2013;4U;1;VIA PUBLICA;ESCUELAS;ALVAREZ JONTE AV.;5075;;Monte Castro;Comuna 10;1407;C1407GPE
-58,41951599;-34,61571479;327;ESC. PRIMARIA COMUN N° 18 DR. ANTONIO BERMEJO;2013;4U;1;VIA PUBLICA;ESCUELAS;BELGRANO AV.;3767;;Almagro;Comuna 5;1210;C1210AAF
-58,41632885;-34,63662787;328;ESC. PRIMARIA COMUN N° 23 PROVINCIA DE ENTRE RIOS;2013;4U;1;VIA PUBLICA;ESCUELAS;BOEDO AV.;1935;;Boedo;Comuna 5;1239;C1239AAJ
-58,41668992;-34,62047099;329;ESC. PRIMARIA COMUN N° 22 MARTINA SILVA DE GURRUCHAGA;2013;4U;1;VIA PUBLICA;ESCUELAS;BOEDO AV.;657;;Almagro;Comuna 5;1218;C1218AAC
-58,41633426;-34,6218166;330;ESC. TECNICA N° 29 RECONQUISTA DE BUENOS AIRES;2013;4U;1;INTERIOR;ESCUELAS;BOEDO AV.;760;;Boedo;Comuna 5;1218;C1218AAQ
-58,49006446;-34,64631744;331;ESC. PRIMARIA COMUN N° 24 SARA DE ELIA DE GIMENEZ;2013;4U;1;VIA PUBLICA;ESCUELAS;BRUIX AV.;4620;;Parque Avellaneda;Comuna 9;1407;C1407IKY
-58,43627351;-34,57479897;332;ESC. TECNICA N° 03 MARIA SANCHEZ DE THOMPSON (SEDE);2013;4U;1;INTERIOR;ESCUELAS;CABILDO AV.;40;;Palermo;Comuna 14;1426;C1426AAN
-58,45490067;-34,63015103;333;LICEO N° 05 PASCUAL GUAGLIANONE;2013;4U;1;INTERIOR;ESCUELAS;CARABOBO AV.;286;;Flores;Comuna 7;1406;C1406DGP
-58,47158972;-34,6657256;334;ESC. PRIMARIA COMUN N° 15 REPUBLICA ARGENTINA;2013;4U;1;VIA PUBLICA;ESCUELAS;CASTAÑARES AV.;4689;;Villa Lugano;Comuna 8;;
-58,50214748;-34,66667409;335;ESC. PRIMARIA COMUN N° 11 EMILIO VON BEHRING;2013;4U;1;VIA PUBLICA;ESCUELAS;CARDENAS, CNEL. AV.;2652;;Mataderos;Comuna 9;1440;C1440EJP
-58,4758759;-34,68731334;336;ESC. PRIMARIA COMUN N° 13 DR. ALFREDO LANARI;2013;4U;1;VIA PUBLICA;ESCUELAS;PIEDRA BUENA AV.;4863;;Villa Riachuelo;Comuna 8;1439;C1439GWF
-58,39512146;-34,59958166;337;ESC. NORMAL SUPERIOR N° 01 EN LENGUAS VIVAS PRESIDENTE R. SAENZ PEÑA;2013;4U;1;INTERIOR;ESCUELAS;CORDOBA AV.;1951;;Recoleta;Comuna 2;1120;C1120AAB
-58,45589908;-34,54290417;338;ESC. DE EDUCACION MEDIA N° 03/10°;2013;4U;1;INTERIOR;ESCUELAS;SANCHEZ, MIGUEL B. AV.;1050;;Nuñez;Comuna 13;;
-58,50436666;-34,66618991;339;ESC. PRIMARIA COMUN N° 14 ISLAS MALVINAS;2013;4U;1;VIA PUBLICA;ESCUELAS;DE LOS CORRALES AV.;7040;;Mataderos;Comuna 9;1440;C1440BBT
-58,46761303;-34,59014675;340;ESC. DE COMERCIO N° 24 DR. DALMACIO VELEZ SARSFIELD;2013;4U;1;INTERIOR;ESCUELAS;DEL CAMPO AV.;1340;;Paternal;Comuna 15;1427;C1427APN
-58,37731049;-34,5917424;341;ESC. TECNICA N° 12 LIBERTADOR GRAL. JOSE DE SAN MARTIN;2013;4U;1;INTERIOR;ESCUELAS;DEL LIBERTADOR AV.;238;;Retiro;Comuna 1;1001;C1001ABP
-58,46636049;-34,53635597;342;ESC. TECNICAS RAGGIO;2013;4U;1;INTERIOR;ESCUELAS;DEL LIBERTADOR AV.;8635;;Nuñez;Comuna 13;1429;C1429BNG
-58,41896357;-34,56475259;343;INST. SUPERIOR DEL PROF. DE EDUC. INICIAL SARA CHAMBERLAIN DE ECCLESTON (SEDE);2013;4U;1;INTERIOR;ESCUELAS;DORREGO AV.;3751;;Palermo;Comuna 14;1425;C1425GBB
-58,39181822;-34,61759428;344;ESC. DE EDUCACION MEDIA N° 01/03°;2013;4U;1;INTERIOR;ESCUELAS;ENTRE RIOS AV.;757;;Balvanera;Comuna 3;1080;C1080ABB
-58,47017998;-34,66450625;345;ESC. DE COMERCIO N° 06 AMERICA;2013;4U;1;INTERIOR;ESCUELAS;ESCALADA AV.;2890;;Villa Lugano;Comuna 8;1439;C1439FHN
-58,4499315;-34,60953884;346;ESC. SUPERIOR DE COMERCIO N° 03 HIPOLITO VIEYTES;2013;4U;1;INTERIOR;ESCUELAS;GAONA AV.;1502;;Caballito;Comuna 6;1416;C1416DRQ
-58,41649754;-34,58171152;347;ESC. TECNICA DE JARDINERIA CRISTOBAL M. HICKEN;2013;4U;1;INTERIOR;ESCUELAS;LAS HERAS GENERAL AV.;4078;;Palermo;Comuna 14;1425;C1425ATR
-58,42090406;-34,65591457;348;ESC. TECNICA N° 33 FUNDICION MAESTRANZA DEL PLUMERILLO;2013;4U;1;INTERIOR;ESCUELAS;RABANAL, FRANCISCO, INTENDENTE AV.;1549;;Nueva Pompeya;Comuna 4;1437;C1437FPC
-58,42875478;-34,65944063;349;ESC. PRIMARIA COMUN N° 08 LUIS FEDERICO LELOIR;2013;4U;1;VIA PUBLICA;ESCUELAS;RABANAL, FRANCISCO, INTENDENTE AV.;2275;;Villa Soldati;Comuna 8;1437;C1437FPJ
-58,43438063;-34,66199802;350;ESC. PRIMARIA COMUN N° 14 CAPITANA MARIA REMEDIOS DEL VALLE;2013;4U;1;VIA PUBLICA;ESCUELAS;RABANAL, FRANCISCO, INTENDENTE AV.;2751;;Villa Soldati;Comuna 8;1437;C1437FQB
-58,43508809;-34,62211823;351;LICEO N° 12 FRAY MAMERTO ESQUIU;2013;4U;1;INTERIOR;ESCUELAS;MORENO, JOSE MARIA AV.;345;;Caballito;Comuna 6;1424;C1424AAD
-58,49296705;-34,64388547;352;ESC. DE BELLAS ARTES ROGELIO YRURTIA;2013;4U;1;INTERIOR;ESCUELAS;ALBERDI, JUAN BAUTISTA AV.;4754;;Parque Avellaneda;Comuna 9;1407;C1407HAO
-58,42005532;-34,63194438;353;ESC. PRIMARIA COMUN N° 26 REPUBLICA DE COLOMBIA;2013;4U;1;VIA PUBLICA;ESCUELAS;GARAY, JUAN DE AV.;3972;;Boedo;Comuna 5;1256;C1256ABV
-58,42651042;-34,62749048;354;ESC. PRIMARIA COMUN N° 06 SAN JOSE DE CALASANZ;2013;4U;1;VIA PUBLICA;ESCUELAS;LA PLATA AV.;1038;;Boedo;Comuna 5;1250;C1250AAN
-58,44426669;-34,65830637;355;ESC. PRIMARIA COMUN N° 16 WILLIAM C. MORRIS;2013;4U;1;VIA PUBLICA;ESCUELAS;LAFUENTE;2670;;Villa Soldati;Comuna 8;1437;C1437BUQ
-58,49942618;-34,65373724;356;ESC. PRIMARIA COMUN N° 03 EDUARDO LADISLAO HOLMBERG;2013;4U;1;VIA PUBLICA;ESCUELAS;LARRAZABAL;1556;;Mataderos;Comuna 9;1440;C1440CUU
-58,47228919;-34,67645861;357;ESC. PRIMARIA COMUN N° 03 CRISTOBAL COLON;2013;4U;1;VIA PUBLICA;ESCUELAS;LARRAZABAL;4051;;Villa Lugano;Comuna 8;1439;C1439EDC
-58,46592841;-34,68007397;358;ESC. PRIMARIA COMUN N° 05 ARMADA ARGENTINA;2013;4U;1;VIA PUBLICA;ESCUELAS;LARRAZABAL AV.;4520;;Villa Lugano;Comuna 8;1439;C1439EEN
-58,46086186;-34,68418877;359;ESC. PRIMARIA COMUN N° 10 ITALO AMERICO FORADORI;2013;4U;1;VIA PUBLICA;ESCUELAS;LARRAZABAL AV.;5001;;Villa Lugano;Comuna 8;1439;C1439EEF
-58,45867206;-34,68532947;360;ESC. DE COMERCIO N° 35 LEOPOLDO MARECHAL;2013;4U;1;INTERIOR;ESCUELAS;LARRAZABAL AV.;5140;;Villa Lugano;Comuna 8;1439;C1439EET
-58,45867206;-34,68532947;361;ESC. DE EDUCACION MEDIA N° 06/21°;2013;4U;1;INTERIOR;ESCUELAS;LARRAZABAL AV.;5140;;Villa Lugano;Comuna 8;1439;C1439EET
-58,45851561;-34,68540497;362;ESC. PRIMARIA COMUN N° 02 MAESTRO EDUARDO LUIS VICENTE;2013;4U;1;VIA PUBLICA;ESCUELAS;LARRAZABAL AV.;0;ROCA, CNEL. AV.;Villa Lugano;Comuna 8;;
-58,37576898;-34,63371233;363;ESC. PRIMARIA COMUN N° 03 BERNARDO DE IRIGOYEN;2013;4U;1;VIA PUBLICA;ESCUELAS;MONTES DE OCA, MANUEL AV.;439;;Barracas;Comuna 4;1270;C1270AAE
-58,46616385;-34,56186343;364;ESC. DE COMERCIO N° 07 MANUEL BELGRANO;2013;4U;1;INTERIOR;ESCUELAS;MONROE;3061;;Belgrano;Comuna 13;1428;C1428BLY
-58,46937948;-34,6718965;365;ESC. PRIMARIA COMUN N° 04 PROVINCIA DE TUCUMAN;2013;4U;1;VIA PUBLICA;ESCUELAS;RIESTRA AV.;5030;;Villa Lugano;Comuna 8;1439;C1439BYO
-58,41693063;-34,6107702;366;COLEGIO N° 03 MARIANO MORENO;2013;4U;1;INTERIOR;ESCUELAS;RIVADAVIA AV.;3577;;Almagro;Comuna 5;1204;C1204AAA
-58,4353155;-34,61791686;367;ESC. NORMAL SUPERIOR N° 04 ESTANISLAO SEVERO ZEBALLOS;2013;4U;1;INTERIOR;ESCUELAS;RIVADAVIA AV.;4950;;Caballito;Comuna 6;1424;C1424CER
-58,4353155;-34,61791686;368;LICEO N° 02 AMANCIO ALCORTA;2013;4U;1;INTERIOR;ESCUELAS;RIVADAVIA AV.;4950;;Caballito;Comuna 6;1424;C1424CER
-58,39579323;-34,59899999;369;LICEO N° 04 REMEDIOS DE ESCALADA DE SAN MARTIN;2013;4U;1;INTERIOR;ESCUELAS;AYACUCHO;875;;Recoleta;Comuna 2;1111;C1111AAA
-58,37306628;-34,64342133;370;COLEGIO N° 11 HIPOLITO YRIGOYEN;2013;4U;1;INTERIOR;ESCUELAS;QUINQUELA MARTIN, BENITO;1649;;Barracas;Comuna 4;1296;C1296ADG
-58,46374274;-34,6889411;371;ESC. PRIMARIA COMUN N° 09 HECTOR PANIZZA;2013;4U;1;VIA PUBLICA;ESCUELAS;BERON DE ASTRADA;5920;;Villa Lugano;Comuna 8;1439;C1439DPB
-58,46714625;-34,69189177;372;ESC. PRIMARIA COMUN N° 16 DR. SOFANOR NOVILLO CORVALAN;2013;4U;1;VIA PUBLICA;ESCUELAS;BERON DE ASTRADA;6351;;Villa Riachuelo;Comuna 8;1439;C1439DPI
-58,46925042;-34,62672477;373;ESC. DE EDUCACION MEDIA N° 01/12° JULIO CORTAZAR;2013;4U;1;INTERIOR;ESCUELAS;BOGOTA;2759;;Flores;Comuna 7;1406;C1406GBY
-58,49736643;-34,64906544;374;ESC. PRIMARIA COMUN N° 13 PROF. LUZ VIEIRA MENDEZ;2013;4U;1;VIA PUBLICA;ESCUELAS;BRAGADO;5350;;Mataderos;Comuna 9;1440;C1440ACJ
-58,41844483;-34,61038381;375;ESC. DE CERAMICA N° 01;2013;4U;1;INTERIOR;ESCUELAS;BULNES;45;;Almagro;Comuna 5;1176;C1176AAA
-58,46644442;-34,68668771;376;ESC. PRIMARIA COMUN N° 01 CONCEJAL ALBERTO SALVATORI;2013;4U;1;VIA PUBLICA;ESCUELAS;CAFAYATE;5115;;Villa Lugano;Comuna 8;1439;C1439FUW
-58,46364697;-34,68844949;377;ESC. PRIMARIA COMUN N° 15 DR. CARLOS ALBERTO VERONELLI;2013;4U;1;VIA PUBLICA;ESCUELAS;CAFAYATE;5388;;Villa Lugano;Comuna 8;1439;C1439IEB
-58,4864811;-34,67605143;378;ESC. DE EDUCACION MEDIA N° 02/20°;2013;4U;1;INTERIOR;ESCUELAS;CAÑADA DE GOMEZ;3850;;Villa Lugano;Comuna 8;;
-58,47793617;-34,68299866;379;ESC. PRIMARIA COMUN N° 14 DR. RICARDO LEVENE;2013;4U;1;VIA PUBLICA;ESCUELAS;CAÑADA DE GOMEZ;4548;;Villa Lugano;Comuna 8;;
-58,51033177;-34,66084408;380;ESC. PRIMARIA COMUN N° 07 ARISTOBULO DEL VALLE;2013;4U;1;VIA PUBLICA;ESCUELAS;CARHUE;2157;;Mataderos;Comuna 9;1440;C1440FNO
-58,42811965;-34,66078087;381;ESC. PRIMARIA COMUN N° 09 DR. JOSE BENJAMIN ZUBIAUR;2013;4U;1;VIA PUBLICA;ESCUELAS;BERG, CARLOS;3460;;Villa Soldati;Comuna 8;1437;C1437BEJ
-58,40981974;-34,62260561;382;ESC. NORMAL SUPERIOR N° 08 PTE. JULIO ARGENTINO ROCA (ANEXO);2013;4U;1;INTERIOR;ESCUELAS;CALVO, CARLOS;3150;;San Cristobal;Comuna 3;1230;C1230ABB
-58,45934323;-34,56941356;383;COLEGIO N° 08 JULIO ARGENTINO ROCA;2013;4U;1;INTERIOR;ESCUELAS;ZUBERBUHLER, CARLOS E.;1830;;Belgrano;Comuna 13;1426;C1426ASD
-58,41930065;-34,62390176;384;ESC. PRIMARIA COMUN N° 14 INTENDENTE ALVEAR;2013;4U;1;VIA PUBLICA;ESCUELAS;CASTRO BARROS;965;;Boedo;Comuna 5;1217;C1217ABI
-58,37570174;-34,61882678;385;COLEGIO N° 07 JUAN MARTIN DE PUEYRREDON;2013;4U;1;INTERIOR;ESCUELAS;CHACABUCO;922;;San Telmo;Comuna 1;1069;C1069AAT
-58,49657542;-34,65402334;386;ESC. PRIMARIA COMUN N° 02 ISABEL LA CATOLICA;2013;4U;1;VIA PUBLICA;ESCUELAS;CHASCOMUS;5598;;Mataderos;Comuna 9;1440;C1440AQP
-58,46754438;-34,67927735;387;ESC. TECNICA N° 13 ING. JOSE LUIS DELPINI;2013;4U;1;INTERIOR;ESCUELAS;CHILAVERT, MARTINIANO, CORONEL;5460;;Villa Lugano;Comuna 8;1439;C1439CLF
-58,45989155;-34,6294849;388;ESC. DE COMERCIO N° 09 JOSE INGENIEROS;2013;4U;1;VIA PUBLICA;ESCUELAS;FALCON, RAMON L.,CNEL.;2248;;Flores;Comuna 7;1406;C1406GNT
-58,40461792;-34,62571317;389;ESC. TECNICA N° 11 MANUEL BELGRANO;2013;4U;2;INTERIOR;ESCUELAS;COCHABAMBA;2830;;San Cristobal;Comuna 3;1252;C1252AAV
-58,50248861;-34,59945315;390;ESC. TECNICA N° 16 ESPAÑA;2013;4U;1;INTERIOR;ESCUELAS;CONCORDIA;3555;;Villa Devoto;Comuna 11;1419;C1419ANA
-58,46801414;-34,62778619;391;COLEGIO N° 09 JUSTO JOSE DE URQUIZA;2013;4U;1;INTERIOR;ESCUELAS;CONDARCO;290;;Flores;Comuna 7;1406;C1406AFD
-58,46022787;-34,56760675;392;LICEO N° 09 SANTIAGO DERQUI;2013;4U;1;INTERIOR;ESCUELAS;CONESA;1855;;Belgrano;Comuna 13;1428;C1428CUA
-58,50787304;-34,65177747;393;ESC. PRIMARIA COMUN N° 20 JUAN RAMON JIMENEZ;2013;4U;1;VIA PUBLICA;ESCUELAS;MURGUIONDO;1347;;Mataderos;Comuna 9;1440;C1440CNE
-58,46171568;-34,5644718;394;ESC. DE EDUCACION MEDIA N° 05/10° HEROES DE MALVINAS;2013;4U;1;INTERIOR;ESCUELAS;CRAMER AV.;2136;;Belgrano;Comuna 13;1428;C1428CTH
-58,45736648;-34,55798866;395;ESC. TECNICA N° 28 REPUBLICA FRANCESA;2013;4U;1;INTERIOR;ESCUELAS;CUBA;2410;;Belgrano;Comuna 13;1428;C1428AEN
-58,40483417;-34,6320372;396;ESC. NORMAL SUPERIOR N° 11 DR. RICARDO LEVENE;2013;4U;1;INTERIOR;ESCUELAS;DEAN FUNES;1821;;Parque Patricios;Comuna 4;1244;C1244AAM
-58,42464925;-34,6139312;397;ESC. PRIMARIA COMUN N° 16 JOSE MARIA RAMOS MEJIA;2013;4U;1;VIA PUBLICA;ESCUELAS;DON BOSCO;4200;;Almagro;Comuna 5;1206;C1206ABP
-58,49880135;-34,63084249;398;ESC. PRIMARIA COMUN N° 10 ADA MARIA ELFLEIN;2013;4U;1;VIA PUBLICA;ESCUELAS;BELAUSTEGUI, LUIS, DR.;4949;;Velez Sarsfield;Comuna 10;1407;C1407EYG
-58,48572755;-34,66682589;399;ESC. PRIMARIA COMUN N° 22 SANTA MARIA DE LOS BUENOS AIRES;2013;4U;1;VIA PUBLICA;ESCUELAS;ECHEANDIA;5650;;Villa Lugano;Comuna 8;1439;C1439BJZ
-58,52374654;-34,63754258;400;COLEGIO N° 13 CNEL. TOMAS ESPORA;2013;4U;1;INTERIOR;ESCUELAS;GALLARDO;149;;Liniers;Comuna 9;1408;C1408BSA
-58,43195976;-34,58876956;401;ESC. DE EDUCACION MEDIA N° 05/21° JUAN MANUEL FANGIO;2013;4U;1;VIA PUBLICA;ESCUELAS;GORRITI;5091;;Palermo;Comuna 14;1414;C1414BJQ
-58,4101413;-34,61310095;402;ESC. PRIMARIA COMUN N° 13 BRIG. GRAL. JOSE MATIAS ZAPIOLA;2013;4U;1;VIA PUBLICA;ESCUELAS;URQUIZA, GRAL.;227;;Balvanera;Comuna 3;1215;C1215ADE
-58,47648704;-34,6431436;403;ESC. PRIMARIA COMUN N° 17 GRAL. JUAN GALO LAVALLE;2013;4U;1;VIA PUBLICA;ESCUELAS;GARZON EUGENIO GENERAL;3950;;Parque Avellaneda;Comuna 9;1407;C1407HLJ
-58,48171004;-34,64816443;404;ESC. PRIMARIA COMUN N° 16 DR. TOMAS A. LE BRETON;2013;4U;1;VIA PUBLICA;ESCUELAS;GARZON EUGENIO GENERAL;4346;;Parque Avellaneda;Comuna 9;1407;C1407HMB
-58,37722098;-34,63377273;405;ESC. PRIMARIA COMUN N° 01 REPUBLICA DE BOLIVIA;2013;4U;1;INTERIOR;ESCUELAS;HORNOS, GRAL.;530;;Barracas;Comuna 4;1272;C1272ACJ
-58,41005587;-34,61365891;406;INST. DE EDUC. SUPERIOR MARIANO ACOSTA;2013;4U;1;INTERIOR;ESCUELAS;URQUIZA, GRAL.;277;;Balvanera;Comuna 3;1215;C1215ADE
-58,46920082;-34,64326423;407;ESC. PRIMARIA COMUN N° 11 DR. PEDRO GOYENA;2013;4U;1;VIA PUBLICA;ESCUELAS;LAFERRERE, GREGORIO DE;3624;;Parque Avellaneda;Comuna 9;1407;C1407HQB
-58,52303928;-34,65223902;408;ESC. PRIMARIA COMUN N° 01 DE LA INDEPENDENCIA ARGENTINA;2013;4U;1;VIA PUBLICA;ESCUELAS;GUAMINI;1167;;Liniers;Comuna 9;1408;C1408IAC
-58,41613893;-34,58694396;409;ESC. NORMAL SUPERIOR N° 06 VICENTE LOPEZ Y PLANES;2013;4U;1;INTERIOR;ESCUELAS;GUEMES;3859;;Palermo;Comuna 14;1425;C1425BKS
-58,41912525;-34,59928756;410;ESC. TECNICA N° 30 DR. NORBERTO PIÑERO;2013;4U;1;INTERIOR;ESCUELAS;SALGUERO, JERONIMO;920;;Almagro;Comuna 5;1177;C1177AER
-58,48689403;-34,64382397;411;ESC. PRIMARIA COMUN N° 21 PEDRO INCHAUSPE;2013;4U;1;VIA PUBLICA;ESCUELAS;RODO, JOSE E.;4431;;Parque Avellaneda;Comuna 9;1407;C1407HDQ
-58,48058864;-34,67655325;412;ESC. PRIMARIA COMUN N° 08 JUDITH Y DEMETRIO DEMARCHI;2013;4U;1;VIA PUBLICA;ESCUELAS;RUCCI, JOSE IGNACIO;3961;;Villa Lugano;Comuna 8;1439;C1439FVQ
-58,52919379;-34,62108616;413;CICLO BASICO DE FORMACION OCUPACIONAL N° 02 SALVADOR MAZA;2013;4U;1;INTERIOR;ESCUELAS;VARELA, JOSE PEDRO;5966;;Villa Real;Comuna 10;1408;C1408BJN
-58,50685001;-34,62710391;414;ESC. PRIMARIA COMUN N° 18 GENDARMERIA NACIONAL;2018;1U;3;VIA PUBLICA;Universidades - Colegios;GARCIA, JUAN AGUSTIN;5265;;Monte Castro;Comuna 10;1407;C1407FXM
-58,40343575;-34,61850712;415;ESC. Nº 25 DE 6;2013;4U;1;INTERIOR;ESCUELAS;JUJUY AV.;780;;Balvanera;Comuna 3;1229;C1229ABP
-58,41048868;-34,58548183;416;ESC. DE COMERCIO N° 26 ENRIQUE DE VEDIA;2013;4U;1;INTERIOR;ESCUELAS;JUNCAL;3250;;Palermo;Comuna 14;1425;C1425AYR
-58,4104071;-34,58527567;417;ESC. NORMAL SUPERIOR EN LENGUAS VIVAS SOFIA ESTHER BROQUEN DE SPANGENBERG;2013;4U;1;INTERIOR;ESCUELAS;JUNCAL;3251;;Palermo;Comuna 14;1425;C1425AYQ
-58,4618455;-34,56495243;418;CICLO BASICO DE FORMACION OCUPACIONAL N° 03 OLGA COSSETTINI;2013;4U;1;VIA PUBLICA;ESCUELAS;JURAMENTO;2945;;Belgrano;Comuna 13;1428;C1428DNY
-58,40716486;-34,62253235;419;ESC. NORMAL SUPERIOR N° 08 PRESIDENTE JULIO ARGENTINO ROCA (SEDE);2013;4U;1;INTERIOR;ESCUELAS;LA RIOJA;1042;;San Cristobal;Comuna 3;1221;C1221ACL
-58,40607779;-34,6325084;420;ESC. PRIMARIA COMUN N° 02 JOSE MARIA GUTIERREZ;2013;4U;1;INTERIOR;ESCUELAS;LA RIOJA;1846;;Parque Patricios;Comuna 4;1244;C1244ABN
-58,40793949;-34,61792782;421;CBO N°1;2013;4U;1;VIA PUBLICA;ESCUELAS;LA RIOJA;660;;Balvanera;Comuna 3;1221;C1221ACD
-58,47574179;-34,64476501;422;ESC. PRIMARIA COMUN N° 10 ANTONIO ZACCAGNINI;2013;4U;1;VIA PUBLICA;ESCUELAS;LACARRA AV.;1135;;Parque Avellaneda;Comuna 9;1407;C1407JQW
-58,48171739;-34,64004331;423;ESC. TECNICA N° 17 BRIG. GRAL. CORNELIO SAAVEDRA;2013;4U;1;INTERIOR;ESCUELAS;LACARRA;535;;Parque Avellaneda;Comuna 9;1407;C1407JQK
-58,47496223;-34,64523185;424;ESC MEDIA N°2;2013;4U;1;INTERIOR;ESCUELAS;LACARRA AV.;0;BILBAO, FRANCISCO AV.;Parque Avellaneda;Comuna 9;;
-58,4940264;-34,65758044;425;ESC. PRIMARIA COMUN N° 12 PRESBITERO PROF. V. MONTES CARBALLO;2013;4U;1;VIA PUBLICA;ESCUELAS;LARRAYA;2055;;Mataderos;Comuna 9;1440;C1440CWK
-58,49569351;-34,61289497;426;INST. SUPERIOR DE LENGUAS VIVAS SEDE Y ANEXO;2013;4U;1;INTERIOR;ESCUELAS;LASCANO;3810;;Villa Del Parque;Comuna 11;1417;C1417GZF
-58,39087342;-34,60301879;427;ESC. TECNICA N° 19 ALEJANDRO VOLTA;2013;4U;1;VIA PUBLICA;ESCUELAS;LAVALLE;1681;;San Nicolas;Comuna 1;1048;C1048AAM
-58,38439452;-34,59353745;428;COLEGIO N° 02 DOMINGO FAUSTINO SARMIENTO;2013;4U;1;INTERIOR;ESCUELAS;LIBERTAD;1257;;Retiro;Comuna 1;1012;C1012AAY
-58,50303369;-34,64991516;429;ESC. PRIMARIA COMUN N° 04 REPUBLICA DEL BRASIL;2013;4U;1;VIA PUBLICA;ESCUELAS;ARTIGAS MANUEL DE;5951;;Mataderos;Comuna 9;1440;C1440BRQ
-58,44837923;-34,66061141;430;ESC. PRIMARIA COMUN N° 21 GUILLERMO JOSE BARROS;2013;4U;1;VIA PUBLICA;ESCUELAS;ACOSTA, MARIANO;2976;;Villa Soldati;Comuna 8;1437;C1437CDF
-58,41755514;-34,60794173;431;ESC. DE EDUCACION MEDIA N° 01/02°;2013;4U;1;INTERIOR;ESCUELAS;BRAVO, MARIO;234;;Almagro;Comuna 5;1175;C1175ABD
-58,44876921;-34,66231808;432;ESC. PRIMARIA COMUN N° 20 MAESTRO CARLOS ALBERTO CARRANZA;2013;4U;1;VIA PUBLICA;ESCUELAS;MARTINEZ CASTRO;3061;;Villa Soldati;Comuna 8;1437;C1437CHE
-58,44873692;-34,66234273;433;ESC. DE EDUCACION MEDIA N° 02/19° ARTURO JAURETCHE;2013;4U;1;INTERIOR;ESCUELAS;MARTINEZ CASTRO;3067;;Villa Soldati;Comuna 8;1437;C1437CHE
-58,44866419;-34,66240124;434;ESC. DE EDUCACION MEDIA N° 05/19°;2013;4U;1;INTERIOR;ESCUELAS;MARTINEZ CASTRO;3077;;Villa Soldati;Comuna 8;1437;C1437CHE
-58,50826268;-34,65248826;435;ESC. PRIMARIA COMUN N° 16 DR. MARTINIANO LEGUIZAMON;2013;4U;1;VIA PUBLICA;ESCUELAS;LEGUIZAMON, MARTINIANO;1470;;Mataderos;Comuna 9;1440;C1440DYF
-58,414534;-34,63388731;436;ESC. PRIMARIA COMUN N° 08 ALMAFUERTE;2013;4U;1;VIA PUBLICA;ESCUELAS;MAZA;1913;;Boedo;Comuna 5;1240;C1240ADO
-58,5126254;-34,60064037;437;ESC. DE EDUCACION MEDIA N° 03/17° ANTONIO DEVOTO;2013;4U;1;INTERIOR;ESCUELAS;MERCEDES;4002;;Villa Devoto;Comuna 11;1419;C1419BGJ
-58,39999976;-34,6163712;438;ESC. PRIMARIA COMUN N° 15 FRANCISCO NARCISO DE LAPRIDA;2013;4U;1;INTERIOR;ESCUELAS;MEXICO;2383;;Balvanera;Comuna 3;1222;C1222ABK
-58,45810472;-34,5440233;439;PROFESORADO ROMERO BREST;2013;4U;10;INTERIOR;ESCUELAS;SANCHEZ, MIGUEL B. AV.;1338;;Nuñez;Comuna 13;;
-58,48204505;-34,66277449;440;ESC. PRIMARIA COMUN N° 09 HOMERO MANZI;2013;4U;1;VIA PUBLICA;ESCUELAS;MIRALLA;2666;;Villa Lugano;Comuna 8;1439;C1439EPD
-58,52581129;-34,65062728;441;ESC. PRIMARIA COMUN N° 02 DR. FRANCISCO MELITON ALVAREZ;2013;4U;1;VIA PUBLICA;ESCUELAS;MONTIEL;1041;;Liniers;Comuna 9;1408;C1408FVU
-58,49332234;-34,67638036;442;ESC. PRIMARIA COMUN N° 22 RUFINO LURO CAMBACERES;2013;4U;1;VIA PUBLICA;ESCUELAS;MONTIEL;3826;;Villa Lugano;Comuna 8;1439;C1439HEF
-58,5049977;-34,65324308;443;LICEO N° 08 ESTEBAN ECHEVERRIA;2013;4U;1;INTERIOR;ESCUELAS;MURGUIONDO;1568;;Mataderos;Comuna 9;1440;C1440CNJ
-58,51281028;-34,60541724;444;COLEGIO N° 19 LUIS PASTEUR;2013;4U;2;INTERIOR;ESCUELAS;NAVARRO;4344;;Villa Devoto;Comuna 11;1419;C1419HUJ
-58,46078812;-34,60198022;445;ESC. DE COMERCIO N° 20 DR. JUAN AGUSTIN GARCIA;2013;4U;1;INTERIOR;ESCUELAS;OROÑO, NICASIO;2131;;Paternal;Comuna 15;;
-58,46418125;-34,68376418;446;ESC. PRIMARIA COMUN N° 06 REPUBLICA DE LA INDIA;2013;4U;1;VIA PUBLICA;ESCUELAS;DESCALZI, NICOLAS;5425;;Villa Lugano;Comuna 8;1439;C1439DEA
-58,47804919;-34,55616381;447;ESC. TECNICA N° 21 FRAGATA ESCUELA LIBERTAD;2013;4U;1;INTERIOR;ESCUELAS;NUÑEZ;3620;;Coghlan;Comuna 12;;
-58,42655179;-34,60343115;448;ESC. PRIMARIA COMUN N° 11 PROVINCIA DE JUJUY;2013;4U;1;VIA PUBLICA;ESCUELAS;NUÑEZ, ROBERTO, OBRERO;4355;;Almagro;Comuna 5;;
-58,45570595;-34,55657993;449;ESC. NORMAL SUPERIOR N° 10 JUAN BAUTISTA ALBERDI (SEDE);2013;4U;1;INTERIOR;ESCUELAS;O'HIGGINS;2441;;Belgrano;Comuna 13;1428;C1428AGM
-58,48957693;-34,66494572;450;ESC. PRIMARIA COMUN N° 11 PONCIANO VIVANCO;2013;4U;1;VIA PUBLICA;ESCUELAS;OLIDEN;2851;;Villa Lugano;Comuna 8;1439;C1439FNA
-58,39520267;-34,59875969;451;ESC. DE COMERCIO N° 10 ISLAS MALVINAS;2013;4U;1;INTERIOR;ESCUELAS;PARAGUAY;1950;;Recoleta;Comuna 2;1121;C1121ABD
-58,47339029;-34,63509437;452;ESC. TECNICA N° 37 HOGAR NAVAL STELLA MARIS;2013;4U;1;INTERIOR;ESCUELAS;PERGAMINO;211;;Floresta;Comuna 10;1406;C1406FHE
-58,39615269;-34,63122583;453;ESC. PRIMARIA COMUN N° 26 BRIGADIER MIGUEL DE AZCUENAGA;2013;4U;1;VIA PUBLICA;ESCUELAS;PICHINCHA AV.;1873;;Parque Patricios;Comuna 4;1249;C1249ABM
-58,48361746;-34,6399437;454;ESC. TECNICA N° 08 PAULA ALBARRACIN DE SARMIENTO;2013;4U;1;INTERIOR;ESCUELAS;COLLIVADINO, PIO;436;;Parque Avellaneda;Comuna 9;1407;C1407JOB
-58,4678705;-34,62951914;455;ESC. TECNICA N° 06 FERNANDO FADER;2013;4U;1;INTERIOR;ESCUELAS;LA PORTEÑA;54;;Flores;Comuna 7;;
-58,44290458;-34,66211815;456;ESC. PRIMARIA COMUN N° 15 EVARISTO CARRIEGO;2013;4U;1;VIA PUBLICA;ESCUELAS;PORTELA;3150;;Villa Soldati;Comuna 8;1437;C1437BZP
-58,42637868;-34,59839353;457;ESC. PRIMARIA COMUN N° 20 ROSARIO VERA PEÑALOZA;2013;4U;1;VIA PUBLICA;ESCUELAS;PRINGLES;1165;;Almagro;Comuna 5;1183;C1183AEU
-58,42750051;-34,60939283;458;ESC. PRIMARIA COMUN N° 23 GRAL. BELGRANO;2013;4U;1;VIA PUBLICA;ESCUELAS;PRINGLES;263;;Almagro;Comuna 5;1183;C1183AEC
-58,42229294;-34,61925469;459;ESC. PRIMARIA COMUN N° 04 SALVADOR MARIA DEL CARRIL;2013;4U;1;VIA PUBLICA;ESCUELAS;BOCAYUVA, QUINTINO;620;;Almagro;Comuna 5;1216;C1216AAD
-58,42354792;-34,61676627;460;COLEGIO N° 10 JOSE DE SAN MARTIN;2013;4U;1;INTERIOR;ESCUELAS;QUITO;4047;;Almagro;Comuna 5;1212;C1212ABI
-58,49584202;-34,60188388;461;ESC. TECNICA N° 24 DEFENSA DE BUENOS AIRES;2013;4U;1;INTERIOR;ESCUELAS;GUTIERREZ, RICARDO;3246;;Villa Del Parque;Comuna 11;1417;C1417ECB
-58,39407129;-34,60174087;462;ESC. DE COMERCIO N° 02 DR. ANTONIO BERMEJO;2013;4U;1;INTERIOR;ESCUELAS;RIOBAMBA;623;;Balvanera;Comuna 3;1025;C1025ABM
-58,40261542;-34,61768002;463;ESC. PRIMARIA COMUN N° 06 DR. GUILLERMO CORREA;2013;4U;1;INTERIOR;ESCUELAS;SAAVEDRA;695;;Balvanera;Comuna 3;1229;C1229ACC
-58,50900414;-34,63059079;464;ESC. DE COMERCIO N° 30 DR. ESTEBAN AGUSTIN GASCON;2013;4U;1;INTERIOR;ESCUELAS;SAN BLAS;5387;;Villa Luro;Comuna 10;1407;C1407FUO
-58,48069623;-34,64896519;465;ESC. PRIMARIA COMUN N° 18 DRA. ELVIRA RAWSON DE DELLEPIANE;2013;4U;1;VIA PUBLICA;ESCUELAS;SAN PEDRO;4457;;Parque Avellaneda;Comuna 9;1407;C1407HNQ
-58,49273481;-34,6591589;466;ESC. PRIMARIA COMUN N° 14 JOSE ANTONIO CABRERA;2013;4U;1;VIA PUBLICA;ESCUELAS;SAN PEDRO;5845;;Mataderos;Comuna 9;1440;C1440BDS
-58,41498787;-34,60641613;467;ESC. PRIMARIA COMUN N° 22 CARLOS JAVIER BENIELLI;2013;4U;1;VIA PUBLICA;ESCUELAS;SANCHEZ DE BUSTAMANTE;260;;Almagro;Comuna 5;1173;C1173ABD
-58,46743085;-34,66072378;468;ESCUELA NORMAL SUPERIOR N°3 ( ANEXO );2013;4U;1;VIA PUBLICA;ESCUELAS;SARAZA;4202;;Villa Lugano;Comuna 8;1439;C1439AOB
-58,46744899;-34,6607412;469;ESCUELA NORMAL SUPERIOR N 3 (ANEXO);2013;4U;1;VIA PUBLICA;ESCUELAS;SARAZA;4204;;Villa Lugano;Comuna 8;1439;C1439AOB
-58,46438853;-34,68521851;470;ESC. DE BELLAS ARTES LOLA MORA;2013;4U;1;INTERIOR;ESCUELAS;SOLDADO DE LA FRONTERA AV.;5155;;Villa Lugano;Comuna 8;1439;C1439FPE
-58,42253833;-34,6298696;471;ESC. PRIMARIA COMUN N° 25 PAULA ALBARRACIN DE SARMIENTO;2013;4U;1;VIA PUBLICA;ESCUELAS;TARIJA;4136;;Boedo;Comuna 5;1253;C1253ACR
-58,42039486;-34,65470038;472;ESC. PRIMARIA COMUN N° 02 DR. GENARO SISTO;2013;4U;1;VIA PUBLICA;ESCUELAS;TILCARA;3365;;Nueva Pompeya;Comuna 4;1437;C1437CYK
-58,48682303;-34,55279789;473;ESC. DE EDUCACION MEDIA N° 05/15°;2013;4U;1;INTERIOR;ESCUELAS;TRONADOR;4134;;Saavedra;Comuna 12;1430;C1430DMZ
-58,4901829;-34,56177999;474;ESC. DE COMERCIO N° 15 DRA. CECILIA GRIERSON;2013;4U;1;INTERIOR;ESCUELAS;VALDENEGRO;3523;;Saavedra;Comuna 12;1431;C1431GAS
-58,37928685;-34,64340329;475;ESC. TECNICA N° 10 FRAY LUIS BELTRAN;2013;4U;1;INTERIOR;ESCUELAS;VIEYTES;942;;Barracas;Comuna 4;1275;C1275AGD
-58,371501;-34,63481685;476;ESC. DE BELLAS ARTES MANUEL BELGRANO;2013;4U;1;INTERIOR;ESCUELAS;VILLAFAÑE, WENCESLAO;1342;;Barracas;Comuna 4;;
-58,44319622;-34,60801324;477;PARQUE CENTENARIO;2013;4U;6;INTERIOR;ESPACIOS VERDES;DIAZ VELEZ AV.;5463;;Caballito;Comuna 6;1405;C1405DCJ
-58,40842622;-34,58650321;478;PLAZA LAS HERAS;2013;4U;2;VIA PUBLICA;ESPACIOS VERDES;DIAZ, CNEL. AV.;0;JUNCAL;Recoleta;Comuna 2;;
-58,49827514;-34,55323269;479;POLIDEPORTIVO SARMIENTO;2018;1U;15;INTERIOR;POLIDEPORTIVO;BALBIN, RICARDO, DR. AV.;4750;;Saavedra;Comuna 12;1430;C1430ABS
-58,42604365;-34,58869969;480;PLAZA PALERMO VIEJO;2013;4U;1;VIA PUBLICA;ESPACIOS VERDES;COSTA RICA;0;ARMENIA;Palermo;Comuna 14;;
-58,38399847;-34,5970027;481;PLAZA LIBERTAD;2013;4U;1;VIA PUBLICA;ESPACIOS VERDES;LIBERTAD;0;ALVEAR, MARCELO T. DE;Retiro;Comuna 1;;
-58,39773857;-34,58863451;482;PLAZA EMILIO MITRE;2013;4U;1;VIA PUBLICA;ESPACIOS VERDES;PACHECO DE MELO, JOSE ANDRES;0;LARREA;Recoleta;Comuna 2;;
-58,39192282;-34,59728325;483;PLAZA RODRIGUEZ PEÑA;2013;4U;3;VIA PUBLICA;ESPACIOS VERDES;RODRIGUEZ PEÑA;0;ALVEAR, MARCELO T. DE;Recoleta;Comuna 2;;
-58,39176738;-34,59855925;484;PLAZA RODRIGUEZ PEÑA;2013;4U;3;VIA PUBLICA;ESPACIOS VERDES;RODRIGUEZ PEÑA;0;PARAGUAY;Recoleta;Comuna 2;;
-58,3841056;-34,60134016;485;PLAZA;2013;4U;2;VIA PUBLICA;ESPACIOS VERDES;LIBERTAD;0;TUCUMAN;San Nicolas;Comuna 1;;
-58,41837434;-34,57153057;486;ESTACION SALUDABLE;2013;4U;1;VIA PUBLICA;ESPACIOS VERDES;MONTT, PEDRO, PRES. AV.;0;KENNEDY, JOHN FITZGERALD;Palermo;Comuna 14;;
-58,43471074;-34,55440729;487;ESTACION SALUDABLE;2013;4U;1;VIA PUBLICA;ESPACIOS VERDES;ALSINA, VALENTIN AV.;0;ARMAUER HANSEN, GERARDO, DR.;Palermo;Comuna 14;;
-58,39079959;-34,58784602;488;LA BIELA;2013;4U;1;VIA PUBLICA;GASTRONOMICOS;QUINTANA, MANUEL, PRES. AV.;600;;Recoleta;Comuna 2;1129;C1129ABO
-58,51110656;-34,59992007;489;"HOSPITAL GENERAL DE AGUDOS A. ZUBIZARRETA""""";2013;4U;3;VIA PUBLICA;HOSPITALES;NUEVA YORK;3952;;Villa Devoto;Comuna 11;1419;C1419HDN
-58,37458169;-34,61024652;490;VIA PUBLICA;2013;4U;1;VIA PUBLICA;MICROCENTRO;ROCA, JULIO A., PRESIDENTE DIAGONAL SUR AV.;600;;Monserrat;Comuna 1;1067;C1067ABN
-58,41152503;-34,60417594;491;SUBTE CARLOS GARDEL;2013;4U;1;VIA PUBLICA;SUBTE;CORRIENTES AV.;3292;;Balvanera;Comuna 3;1193;C1193AAR
-58,43133391;-34,60224654;492;SUBTE ANGEL GALLARDO;2013;4U;1;VIA PUBLICA;SUBTE;CORRIENTES AV.;4662;;Almagro;Comuna 5;1195;C1195AAS
-58,39282257;-34,60131906;493;USAL CS. JURIDICAS;2013;4U;1;INTERIOR;UNIVERSIDADES;CALLAO AV.;660;;Balvanera;Comuna 3;1022;C1022AAT
-58,39858553;-34,59985686;494;FACULTAD DE CIENCIAS ECONOMICAS UBA;2013;4U;1;VIA PUBLICA;UNIVERSIDADES;CORDOBA AV.;0;URIBURU JOSE E., PRES.;Balvanera;Comuna 3;;
-58,39122438;-34,60426093;495;UMSA;2017;1U;4;VIA PUBLICA;Universidades - Colegios;CORRIENTES AV.;1723;;San Nicolas;Comuna 1;1042;C1042AAD
-58,3928443;-34,59928449;496;USAL CS DE LA EDUCACION Y LA COMUNICACION;2013;4U;1;VIA PUBLICA;UNIVERSIDADES;CALLAO AV.;835;;Recoleta;Comuna 2;1023;C1023AAB
-58,40093424;-34,61089907;497;UNIVERSIDAD DEL SALVADOR - FACULTAD DE CIENCIAS SOCIALES;2013;4U;1;INTERIOR;UNIVERSIDADES;YRIGOYEN, HIPOLITO;2441;;Balvanera;Comuna 3;1089;C1089AAU
-58,39356837;-34,60324103;498;USAL FILOSOFIA Y LETRAS;2013;4U;1;INTERIOR;UNIVERSIDADES;LAVALLE;1878;;Balvanera;Comuna 3;1051;C1051ABB
-58,38588135;-34,59703525;499;USAL CS. DE LA ADMINISTRACION;2013;4U;1;INTERIOR;UNIVERSIDADES;ALVEAR, MARCELO T. DE;1312;;Retiro;Comuna 1;1058;C1058AAV
-58,38617905;-34,59694765;500;USAL CS. ECONOMICAS;2013;4U;1;INTERIOR;UNIVERSIDADES;ALVEAR, MARCELO T. DE;1335;;Retiro;Comuna 1;1058;C1058AAU
-58,42019567;-34,59856495;501;UNIVERSIDAD TECNOLOGICA NACIONAL;2013;4U;2;VIA PUBLICA;UNIVERSIDADES;MEDRANO AV.;951;;Almagro;Comuna 5;1179;C1179AAQ
-58,46869624;-34,65956708;502;UNIVERSIDAD TECNOLOGICA NACIONAL;2013;4U;7;INTERIOR;UNIVERSIDADES;MOZART;2350;;Villa Lugano;Comuna 8;1407;C1407IVV